categorie;category;subCategorie;subCategory;acronym;organisation;organization;description;address;city;province;postalCode;metro;openHours;phone1;phone2;fax;website;email;notes
ACCIDENTS DU TRAVAIL;WORK ACCIDENTS;;;CNESST;Commission des normes, de l'�quit�, de la sant� et de la s�curit� du travail;Worker�s Compensation and Standards, Equity, and Occupational Health and Safety board;;1 Complexe Desjardins, Tour Sud, 31e �tage, C.P.3, Succursale Desjardins;Montr�al;Qu�bec;H5B 1H1;Place des Arts;Lundi � vendredi�: 08h30 � 16h30;1 844 838-0808;;;;;
ACCIDENTS DU TRAVAIL;WORK ACCIDENTS;Organismes Communautaires;Community Organizations;UTTAM;Union des travailleurs et travailleuses accident�(e)s de Montr�al;;;Advocacy Re: Work accidents / CNESST Claims 2348, rue Hochelaga;Montr�al;Qu�bec;H2K 1H8;Frontenac;Lundi, mardi, jeudi : 09h00 � 12h00, mercredi: 12h00 � 16h30;;;(514) 527-3661;;info@uttam.quebec;
ACCIDENTS DU TRAVAIL;WORK ACCIDENTS;Organismes Communautaires;Community Organizations;FATA;Fondation pour l�aide aux travailleurs (ses) accident� (es);;;6839A, rue Drolet;Montr�al;Qu�bec;H2S 2T1;Jean-Talon;;(514) 271-0901;;;;fata@fata.qc.ca;Par rendez-vous. Information t�l�phonique gratuite, mais il y a des frais pour la repr�sentation � l�audition de la CNESST audition ou un rencontre � leur bureau.
ACCIDENTS DE LA ROUTE;AUTOMOBILE ACCIDENTS;;;SAAQ;Soci�t� de l�assurance automobile du Qu�bec;;;7335, boulevard Langelier, C-14;Montr�al;Qu�bec;H1S 1V7;;"Lundi, mardi, jeudi, vendredi: 8h30 � 16h30;  mercredi: 9h30 � 16h30";(514) 873-7620;;;www.saaq.gouv.qc.ca;;
ACCIDENTS DE LA ROUTE;AUTOMOBILE ACCIDENTS;;;SAAQ;Soci�t� de l�assurance automobile du Qu�bec;;;855, boulevard Henri-Bourassa Ouest;Montr�al;Qu�bec;H3L 1P3;;"Lundi, mardi, jeudi, vendredi: 8h30 � 16h30;  mercredi: 9h30 � 16h30";(514) 873-7620;;;www.saaq.gouv.qc.ca;;
ACCIDENTS DE LA ROUTE;AUTOMOBILE ACCIDENTS;;;;Fondation des accident�(e)s de la route;;;4949, rue M�tropolitain Est;Montr�al;Qu�bec;H1R 1Z6;;;(514) 277-8555;;;;;For help with SAAQ claims. Membership Fee: $225
AIDE SOCIALE;WELFARE;;;;Direction r�gionale d'Emploi-Qu�bec;;;276, rue St-Jacques Ouest, Mezzanine;Montr�al;Qu�bec;H2Y 1N3;;;(514) 725-5221;;(514) 725-6931;;;
AIDE SOCIALE;WELFARE;;;;Centre local d�emploi de C�te-des-Neiges;;;6655, chemin de la C�te-des-Neiges, 3e �tage;Montr�al;Qu�bec;H3S 2B4;;;(514) 872-6530;;(514) 872-4758;;;
AIDE SOCIALE;WELFARE;;;;Centre local d�emploi de Saint-Laurent;;;6900, boulevard D�carie, bureau 3700;Montr�al;Qu�bec;H4B 2L9;;;(514) 345-0131;;(514) 345-6900;;;
AIDE SOCIALE;WELFARE;;;;Centre de services sp�cialis�s de l�ouest (Social Solidarity recipients);;;2740, rue Remembrance, Rm. 70A (in Shopping Centre);;;;Lionel Groulx, bus 191 ou express 491;;(514) 634-2425;;(514) 634-8782;;;
Organismes communautaires;Community Organizations;;;CPAS;(Comit� des personnes assist�es sociales);;Pointe St-Charles, St Henri, Verdun;1945, rue Mullins, bureau 100;Montr�al;Qu�bec;H3K 2L6;;Lundi au vendredi: 10h00 � 17h00 (sur rendez-vous);(514) 931-6025;;(514) 531-0185;;cpas@cam.org;
Organismes communautaires;Community Organizations;;;ODAS;(Organisation d�aide aux sans-emploi);;St-Henri;2515, rue Delisle, bureau 209;Montr�al;Qu�bec;H3J 1K8;;Et�: lundi � jeudi: 10h00 � 15h00  ||  Hiver: lundi � jeudi: 09h30 � 16h00;(514) 932-3926;;;;odas@bellnet.ca;
Organismes communautaires;Community Organizations;;;ODAS;Regroupement Montr�al (Organisation populaire des droits sociaux);;Bureau Central for staff consultations only-- not clients;3340, rue Ontario Est;Montr�al;Qu�bec;H1W 1P7;;;(514) 524-6996;;;;info@opdsrm.com;
Organismes communautaires;Community Organizations;;;ODAS;Maison Aline Gendron;;Pointe-aux-Trembles, Anjou, Repentigny, Centre-Sud, Mercier, Plateau Mont-Royal, Hochelaga-Maisonneuve:;3340, rue Ontario Est;Montr�al;Qu�bec;H2K 2C5;;;(514) 527-0700;;;;opds.maisonag@videotron.ca;
Organismes communautaires;Community Organizations;;;ODAS;Maison Marie Jeanne Corbeil;;Rosemont, Petite-Patrie, Parc Extension, Montr�al-Nord, St-Michel, St-L�onard, Rivi�re des prairies, Laval;8535, boulevard Pie IX;Montr�al;Qu�bec;H1Z 3T9;;;(514) 322-5782;;;;opds.maisonmjc@videotron.cas;
Organismes communautaires;Community Organizations;;;;St-Columba House - Welfare Rights;;St-Henri, Pointe-St-Charles, Verdun, LaSalle;2365, rue Grand Trunk;Verdun;Qu�bec;H3K 1M8;;;(514) 932-6202 ext.221;;;;info@saintcolumbahouse.org;
Organismes communautaires;Community Organizations;;;BRAS;BRAS Villeray (Bureau de resources des assist�.e.s sociaux);;;660, rue Villeray, bureau 1.101;Montr�al;Qu�bec;H2R 1J1;;;(514) 495-8101;;;;brasvilleray@hotmail.com;
BUDGET, ENDETTEMENT;BUDGET AND DEBT PROBLEMS;;;ACEF;ACEF de l�Est de Montr�al;;;5955, rue de Marseille;Montr�al;Qu�bec;H1N 1K6;Cadillac;Lundi � jeudi: 9h00-18h30.;(514) 257-6622;;;;accueil@acefest.ca;Information t�l�phonique et service par rendez-vous
BUDGET, ENDETTEMENT;BUDGET AND DEBT PROBLEMS;;;ACEF;ACEF du Nord de Montr�al;;;7500, avenue de Ch�teaubriand;Montr�al;Qu�bec;H2R 2M1;Jean-Talon;Lundi � jeudi�: 9h00-12h00, 13h00-16h30.;(514) 277-7959;;;;info@acefnord.org;Information t�l�phonique et service par rendez-vous
BUDGET, ENDETTEMENT;BUDGET AND DEBT PROBLEMS;;;ACEF;ACEF de l�Sud-Ouest de Montr�al�: Pour r�sidents de CDN/NDG;;;6734, boulevard Monk;Montr�al;Qu�bec;H4E 3J1;Monk;Lundi � jeudi: 9h00 � 17h00.;(514) 362-1771;;(514) 362-0660;;acefsom@consommateur.qc.ca;Information t�l�phonique et service par rendez-vous
BUDGET, ENDETTEMENT;BUDGET AND DEBT PROBLEMS;;;;Option consommateurs;;;50, rue Sainte-Catherine Ouest, bureau 440;Montr�al;Qu�bec;H2X 3V4;Saint-Laurent ou Place-des-Arts;;(514) 598-7288;;(514) 598-8511;;info@option-consommateurs.org;Information t�l�phonique
BUDGET, ENDETTEMENT;BUDGET AND DEBT PROBLEMS;;;;Syndics de faillite;Bankruptcy & Trustees;Rochelle Budd;8250, boulevard Decarie, suite 140;Montr�al;Qu�bec;H4P 2P5;;;(514) 731-3191 p.461;;(514) 949-9133;;;
BUDGET, ENDETTEMENT;BUDGET AND DEBT PROBLEMS;;;;Syndics de faillite;Bankruptcy & Trustees;Guylaine Houle;1 pl. Ville Marie, bureau 2720;;;;;;(514) 875-4000;;;;;
BUDGET, ENDETTEMENT;BUDGET AND DEBT PROBLEMS;;;;Syndics de faillite;Bankruptcy & Trustees;Ginsberg Gingras;;;;;;;(514) 878-4545;(514) 878-0180;;;;Clients can also request consultation online.
CONSOMMATEURS � PROTECTION;CONSUMER PROTECTION;;;;Office de la protection du consommateur;Consumer Protection Office;;5199, rue Sherbrooke Est, bureau 3671;Montr�al;Qu�bec;H1T 3X2;;;(514) 253-6556;1 888 672-2556;(514) 864-2399;;;
CONSOMMATEURS � PROTECTION;CONSUMER PROTECTION;;;(APA);Automobilist Protection Agency (APA);;;292, rue Saint-Joseph Ouest;Montr�al;Qu�bec;H2V 2N7;;Lundi � vendredi : 09h00 � 17h00;(514) 272-5555;(514) 273-5149;;;apamontreal@apa.ca;For problems with car insurance, repair or purchase of a car. $52.00 membership fee includes legal consultation, assistance with small claims litigation, expert witnesses at reduced rates.
CONSOMMATEURS � PROTECTION;CONSUMER PROTECTION;;;;Gaz M�tro;;Customer Service;1717, rue du Havre;Montr�al;Qu�bec;H2K 2X3.;;;1 800 875-9354;(514) 598-3222;(514) 598-3144;https://www.gazmetro.com/en/formulaire-de-plainte;info@gazmetro.com;"Must first report the issue to customer service department and they will fill out a complaint 
report. Customer service can also be reached at info@gazmetro.com . One can also fill out 
a complaint form online at https://www.gazmetro.com/en/formulaire-de-plainte"
CONSOMMATEURS � PROTECTION;CONSUMER PROTECTION;;;;Commissioner for Complaints for Telecommunication Services;;;;;;;;;1 888 221-1687;;1 877 782-2924;;response@ccts-cprst.ca;Problems/complaints with phone and internet companies Must first report the issue to the companies�customer service department.
CONSOMMATEURS � PROTECTION;CONSUMER PROTECTION;;;;Ombudsman des services bancaires et d'investissement;Ombudsman for Banking Services and Investments;;;;;;;;1 888 451-4519;;;;ombudsman@obsi.ca;Complaints about banks for consumers and small businesses.  (Must first go through the Ombudsman at the  particular bank or, for �Desjardins� the Ombudsman for the Province of Quebec) Visit https://www.obsi.ca/en/resource-room/list-of-participating-firms to find the ombudsman for your particular bank or investment agency.
CONSOMMATEURS � PROTECTION;CONSUMER PROTECTION;;;;Ombudservice for Life and Health Insurance;;(by mail, ATTN�: Directrice G�n�rale);2001 Boulevard Robert-Bourassa. 17e �tage;Montr�al;Qu�bec;H3A 2A6;;;(514) 282-2088;1 888 295-8112;(514) 285-4076;;;Complaints about Canadian health and life insurance companies
CONSOMMATEURS � PROTECTION;CONSUMER PROTECTION;;;;Service de conciliation en assurance de dommage;General Insurance OmbudService;;10 Milner Business Court, Suite 701;Toronto;Ontario;M1B 3C6;;;1 877 225-0446;;(416) 299-4261;;;http://Information/Complaints on home, business and automobile insurance. Complaint form found online at https://www.giocanada.org/complaint-form/
CONSOMMATEURS � PROTECTION;CONSUMER PROTECTION;;;FCAC;FCAC - Financial Consumer Agency of Canada;;;;;;;;;1 866 461-2232;;;;;For problems with financial institutions (banks, insurance  companies) Should first file a complaint with the particular financial institution, but FCAC can explain that process.
CONSOMMATEURS � PROTECTION;CONSUMER PROTECTION;;;;Autorit� des marches financiers;;;;;;;;;(514) 395-0337;;;;;Help with Automobile, Home, Life, Disability Insurance. Investment help (including stocks and mutual funds). Credit Union. Should file a complaint with the company first, but will explain process.
CONSOMMATEURS � PROTECTION;CONSUMER PROTECTION;;;;Organisme d�autor�glementation du courtage immobilier du Quebec;;;;;;;;;1 800 440 5100;;;;;Help with mortgages and real estate agents. Monday - Friday 9AM to 4PM, Wednesday opens at 10.
CONSOMMATEURS � PROTECTION;CONSUMER PROTECTION;;;;Mutual Fund Dealers Association of Canada;;;;;;;;;1 888 466-6332;;;;;Complaints with mutual fund dealers. Online complaint form too.
CONSOMMATEURS � PROTECTION;CONSUMER PROTECTION;;;;Anti-Fraud Centre;;;;;;;;Lundi � vendredi: 8h30 � 17h00 (EST).;1 888 495-8501;;;;;National line re: identity theft, telemarketing fraud. Can also report incidents online: http://www.antifraudcentre-centreantifraude.ca/
CONSOMMATEURS � PROTECTION;CONSUMER PROTECTION;;;;Bureau de la concurrence;Competition Bureau;;;;;;;Lundi � vendredi: 8h30-16h30.;1 800 348-5358;(800) 642-3844;(819) 997-0324;http://www.competitionbureau.gc.ca/;;Enforces the Competition Act, Consumer Packaging and  Labelling Act, Textile Labelling Act and Precious Metals Marketing Act. Complaints can be submitted also by mail or online.
COMMUNAUT�S CULTURELLES;COMMUNITY GROUPS;;;;Association de la communaut� noire;Black Community Association;;6588, chemin de la C�te-des-Neiges;Montr�al;Qu�bec;H3S 2B8;;;(514) 737-8321;;(514) 737-6893;;info@cdnbca.org;
COMMUNAUT�S CULTURELLES;COMMUNITY GROUPS;;;;Centre d'amiti� autochtone de Montr�al;Native Friendship Centre;;2001, boulevard Saint-Laurent (coin Ontario);Montr�al;Qu�bec;H2X 2T3;;"Lundi, mardi, jeudi: 9h00-17h00; mercredi: 9h00-20h00 Vendredi: 9h00-16h00";1 855 499-1854;(514) 499-1854;(514) 499-9436;;info@nfcm.org;
COMMUNAUT�S CULTURELLES;COMMUNITY GROUPS;;;;Centre Multi-Ethnique;;;11121, avenue Salk, Bureau 15;Montr�al;Qu�bec;H1G 4Y3;;Lundi � vendredi: 8h30 � 16h30;(514) 329-5044;;(514) 329-4954;;aguillaume@centre-multiculturel.qc.ca;
COMMUNAUT�S CULTURELLES;COMMUNITY GROUPS;;;;Service � la famille chinoise du Grand Montr�al;Chinese Family Services;;987, rue C�t�, 4e �tage;Montr�al;Qu�bec;H2Z 1L1;;Lundi � samedi: 9h00 � 17h00;(514) 861-5244;;(514) 861-9008;;famille.chinoise@qc.aibn.com;
COMMUNAUT�S CULTURELLES;COMMUNITY GROUPS;;;;Communaut� hell�nique de Montr�al;Hellenic Community of Montreal;;5757, avenue Wilderton;Montr�al;Qu�bec;H3S 2K8;;;(514) 738-2421;;;;info@hcgm.org;
COMMUNAUT�S CULTURELLES;COMMUNITY GROUPS;;;;Communaut� vietnamienne au Canada;;;6767, chemin de la C�te-des-Neiges, bureau 495;Montr�al;Qu�bec;H3S 2T6;;;(514) 340-9630;;;;communaute.viet.montreal@gmail.com;
COMMUNAUT�S CULTURELLES;COMMUNITY GROUPS;;;;Entraide ukrainienne de Montr�al;;;3244, rue Beaubien Est, bureau 201;Montr�al;Qu�bec;H1Y 1H7;;;(514) 729-9540;;;;entraid1@bellnet.ca;
COMMUNAUT�S CULTURELLES;COMMUNITY GROUPS;;;AQIM;Association Qu�bec Ile Maurice (AQIM);;;6767, chemin de la C�te-des-Neiges, bureau 693.2;Montr�al;Qu�bec;H3S 2T6;;;(514) 476-5583;;;;;
COMMUNAUT�S CULTURELLES;COMMUNITY GROUPS;;;CJA;F�d�ration CJA (Combined Jewish Appeal);;;5151, chemin de la C�te-Sainte-Catherine;Montr�al;Qu�bec;H3W 1M6;;;(514) 735-3541;;;;fcja@federationcja.org;
COMMUNAUT�S CULTURELLES;COMMUNITY GROUPS;;;;Jamaican Association of Montr�al;;;4065, rue Jean Talon Ouest;Montr�al;Qu�bec;H4P 1W6;;;(514) 737-8229;;;;info@jam-montreal.com;Adult basic education � free classes in reading, writing, math, life skills & intro to computers.
COMMUNAUT�S CULTURELLES;COMMUNITY GROUPS;;;SIARI;SIARI (Service d�interpr�te, d�aide et de r�f�rence aux immigrants);;;6767, chemin de la C�te-des-Neiges, bureau 499;Montr�al;Qu�bec;H3S 2T6;;"Lundi � vendredi�:9h00-12h00; 13h00-17h00.";(514) 738-4763;;(514) 738-4925;;info@siari.org;
COMMUNAUT�S CULTURELLES;COMMUNITY GROUPS;;;;South Asian Women's Community Centre;;;1035, rue Rachel Est, 3e �tage;Montr�al;Qu�bec;H2J 2J5;;;(514) 528-8812;;(514) 528-0896;;;
COMMUNAUT�S CULTURELLES;COMMUNITY GROUPS;;;;Soci�t� Internationale du Bangladesh;;;419, avenue St-Roch, bureau SS05;Montr�al;Qu�bec;H3N 1K2;;;(514) 928-4655;;;;isb1989@gmail.com;
D�PANNAGE;EMERGENCY AID;Nourriture;Food;;Head and Hands;;;5833, rue Sherbrooke Ouest, (corner Melrose)P.O. Box 446 Station NDG;;;H4A 3P5;;;(514) 481-0277;;;;info@headandhands.ca;"Twice a month for youth 12-25; once a month for others."
D�PANNAGE;EMERGENCY AID;Nourriture;Food;;Multi-Caf;;;3591, avenue Appleton;Montr�al;Qu�bec;H3S 1L7;;Les paniers : mardi, mercredi et jeudi 09h00 et 10h30 (preuve de r�sidence n�cessaire);(514) 733-0554;;;;;Ils offrent aussi une popote roulante et aussi le programme � Bonne bo�te, bonne bouffe �
D�PANNAGE;EMERGENCY AID;Nourriture;Food;;D�p�t Alimentaire NDG;;;2146, avenue Marlowe;Montr�al;Qu�bec;H4A 3L5;;Lundi � vendredi : 0900-16h00, mardi ouverte jusqu�� 19h00;(514) 483-4680;;;;info@depotndg.org;Bonne bo�te, bonne bouffe �, d�ners deux fois par semaine, et d�pannage sur mardi et vendredi. Ils peuvent livrer le d�pannage � leur maison un fois par mois si ils ont une perte de mobilit�.
D�PANNAGE;EMERGENCY AID;Nourriture;Food;;MADA (Kosher);;;6875 blvd D�carie;Montr�al;Qu�bec;H3W 3E4;;Lundi � vendredi  09h00 � 20h00.;(514) 483-4680;;;;mada@madacenter.com;Offers a kosher foodbank, cafeteria, furniture and clothing.
D�PANNAGE;EMERGENCY AID;Nourriture;Food;;Jamaica Association;;;4065 Jean Talon Ouest;Montr�al;Qu�bec;H4P 1W6;;Lundi � vendredi  09h00 � 20h00.;(514) 737-8229;;;;info@jam-montreal.com;Offers a foodbank, cafeteria, furniture and clothing. Food bank: Tuesday 12h00-14h00 $3.00 (people of all origins)
V�tements d�occasion;Second-Hand Clothing;;;;Carrefour d'entraide Lachine;;;1176, rue Provost;Lachine;Qu�bec;H8S 1N5;;Lundi � jeudi 08h30 � 15h45, vendredi 08h30 � 21h00;(514) 634-3686;;;;;
V�tements d�occasion;Second-Hand Clothing;;;;Chez Doris;;;1430, rue Chomedey;Montr�al;Qu�bec;H3H 2A7;;Ouvert tous les jours de 08h30 � 15h00;(514) 937-2341;;;;;
V�tements d�occasion;Second-Hand Clothing;;;;Dans la Rue;;;533, rue Ontario Est, bureau 450;Montr�al;Qu�bec;H2L 1N8;;;(514) 526-5222;;;;;
V�tements d�occasion;Second-Hand Clothing;;;;Jeunesse au soleil;Sun Youth;;4251, Saint-Urbain;Montr�al;Qu�bec;H2W 1V6;;;(514) 842-6822;;;;;
V�tements d�occasion;Second-Hand Clothing;;;;Mission Old Brewery;;;902, boulevard Saint-Laurent;Montr�al;Qu�bec;H2Z 1J2;;;(514) 866-6591;;;;;
V�tements d�occasion;Second-Hand Clothing;;;;Mission Saint-Michel;;;137, avenue du President Kennedy;Montr�al;Qu�bec;H2X 3P6;;;(514) 844-8127;;;;;
V�tements d�occasion;Second-Hand Clothing;;;;Relais Communautaire de Laval;;;111, boulevard des Laurentides;Laval;Qu�bec;H7G 2T2;;;(450) 668-8727;;;;;
V�tements et meubles d�occasion;Second-Hand Furniture and Clothing;;;;Arm�e du Salut;Salvation Army;;1655, avenue Richardson;Montreal;Qu�bec;H3K 3J7;;;(514) 766-2155;;;;;
V�tements et meubles d�occasion;Second-Hand Furniture and Clothing;;;;Arm�e du Salut - Hochelaga-Maisonneuve;;;3444, rue Ontario Est;Montreal;Qu�bec;H1W 1P9;;Lundi � vendredi 09h00 � 21h00, samedi 09h00 � 17h00;(514) 529-4025;;;;;
V�tements et meubles d�occasion;Second-Hand Furniture and Clothing;;;;Arm�e du Salut - Notre Dame de Grace;;;5758-62, rue Sherbrooke Ouest;Montreal;Qu�bec;H4A 1X1;;Lundi � vendredi 09h00 � 21h00, samedi 09h00 � 17h00;(514) 488-8714;;;;;
V�tements et meubles d�occasion;Second-Hand Furniture and Clothing;;;;Arm�e du Salut - Notre Dame;;;1620, rue Notre-Dame Ouest;Montr�al;Qu�bec;H3J 1M1;;Lundi � vendredi 09h00 � 21h00, samedi 09h00 � 17h00;(514) 935-7429;;;;;
V�tements et meubles d�occasion;Second-Hand Furniture and Clothing;;;;Arm�e du Salut - Plaza Saint-Hubert;;;7066 rue Saint-Hubert;Montreal;Qu�bec;H2S 2M9;;Lundi � vendredi 09h00 � 21h00, samedi 09h00 � 17h00;(450) 276-3449;;;;;
V�tements et meubles d�occasion;Second-Hand Furniture and Clothing;;;;Le Support (Fondation de la d�ficience intellectuelle);;;6725, boulevard des Grandes Prairies;St-L�onard;Qu�bec;H1P 1A5;;;(514) 725-9797;;;;;Va chercher � domicile les v�tements, meubles, etc.(ne prend pas les �lectrom�nagers ni les divans-lits
V�tements et meubles d�occasion;Second-Hand Furniture and Clothing;;;MADA;MADA;;;6875, boulevard D�carie;Montr�al;Qu�bec;H3W 3E4;;;(514) 342-4969;;;;;
V�tements et meubles d�occasion;Second-Hand Furniture and Clothing;;;;Renaissance � C�te-des-Neiges;;;6700, chemin de la C�te-Des-Neiges;Montr�al;Quebec;H3S 2B2;;Lundi � mercredi 09h00 � 18h00, jeudi � vendredi 09h00 � 21h00, samedi 09h00 � 17h00, dimanche 10h00 � 17h00;(514) 733-6330;;;;;
V�tements et meubles d�occasion;Second-Hand Furniture and Clothing;;;;Renaissance - Siege Social;;;7250, rue Saint-Laurent;Montr�al;Qu�bec;H2R 2X9;;Lundi � mercredi 09h00 � 18h00, jeudi � vendredi 09h00 � 21h00, samedi 09h00 � 17h00, dimanche 10h00 � 17h00;(514) 906-0804;;;;;**Pour trouver le Renaissance le plus proche de chez vous visitez le www.renaissancequebec.ca/fr/magasiner/trouver-un-magasin **
V�tements et meubles d�occasion;Second-Hand Furniture and Clothing;;;;Soci�t� Saint-Vincent de Paul;;;1930, rue de Champlain;Montr�al;Qu�bec;H2L 2S8;;Lundi � vendredi 10h00 � 16h00;(514) 526-5937;;;;;
EMPLOI;EMPLOYMENT;;;;Commission des normes du travail;Labour Standards Board (part of the CNESST);;500, boulevard Ren� L�vesque Ouest, 26e �tage;Montr�al;Qu�bec;H2Z 2A5;Square Victoria;Lundi � vendredi 8h � 17h.;(514) 873-7061;1 844 838-0808;;;;Par rendez-vous / By appointment.
EMPLOI;EMPLOYMENT;Organismes communautaires;Community Organizations;;Au bas de l��chelle;;(For non-unionized workers);6839A, rue Drolet, bureau 305;Montr�al;Qu�bec;H2S 2T1;Jean Talon;"Lundi 13h30 � 17h00, mardi 13h30 � 17h00 ; jeudi, vendredi 09h00 � 12h00 et 13h30 � 17h00";(514) 270-7878;;(514) 270-7726;;;
EMPLOI;EMPLOYMENT;Organismes communautaires;Community Organizations;CTI;CTI (Centre des travailleurs et travailleuses immigrants);IWC (Immigrant Workers Center);;4755, avenue Van Horne, bureau 110  (M�tro: Plamondon);Montr�al;Qu�bec;H3W 1H8;;Lundi, mercredi 13h00 � 17h00,  mardi, jeudi 13h00 � 20h00;(514) 342-2111;;;;;Drop-in, follow up on cases, legal education.
EMPLOI;EMPLOYMENT;Organismes communautaires;Community Organizations;;Association des aides familiales du Qu�bec;Home Caregiver Association;;110, rue Sainte-Ther�se, bureau 309;Montr�al;Qu�bec;H2Y 1E6;Iberville;Mercredi � samedi 09h00 � 16h30;(514) 272-2670;;(514) 272-8338;;;
EMPLOI;EMPLOYMENT;Organismes communautaires;Community Organizations;PINAY;PINAY (Filipino Workers Association);;;4755 Van Horne #110;Montr�al;Qu�bec;H3W 1H8;;;(514) 364-9833;;;;info@pinayquebec.org;Par rendez-vous seulement.
EMPLOI;EMPLOYMENT;Organismes communautaires;Community Organizations;STELLA;STELLA (Community Organization for Sex Workers);;;2065, rue Parthenais, bureau 404  (M�tro�: Frontenac);Montr�al;Qu�bec;H2K 3T1;;Lundi, mercredi, jeudi, vendredi (ferm� le mardi) 11h � 17h;(514) 285-8889;;;;info@chezstella.org;
EMPLOI;EMPLOYMENT;Petites entreprises;Small Business;CDEC;CDEC C�te-des-Neiges;NDG (Corporation de d�veloppement �conomique communautaire);;4950, chemin Queen Mary, bureau 101;Montr�al;Qu�bec;H3W 1X3;Snowdon;"Lundi � vendredi : 9h00-12h00; 13h-15h00.";(514) 342-4842;;;;cdec@cdeccdnndg.org;
EMPLOI;EMPLOYMENT;Petites entreprises;Small Business;;Youth Employment Services (Small Business counselling open to all ages);;;666, rue Sherbrooke Ouest, 7e �tage;Montr�al;Qu�bec;H3A 1E7;McGill;;(514) 878-9788;;(514) 878-9950;;;Lundi � vendredi 09h00 � 17h00, $30 one time fee to open a file.
EMPLOI;EMPLOYMENT;Recherche d�emploi;Job Search;ALAC;ALAC (Alliance pour l'accueil et l'int�gration des immigrant(e)s);;;5165, chemin Queen Mary, bureau 350;Montr�al;Qu�bec;H3W 1X7;;;(514) 737-3642;;(514) 737-3514;;info@alac.qc.ca;Aide � l�emploi (par rdv, pour les immigrants ici depuis <5 ans). Cours de francais pour tout le monde.
EMPLOI;EMPLOYMENT;Recherche d�emploi;Job Search;;Carrefour jeunesse emploi (16-35 Ans);;;6555, chemain de la C�te-des-Neiges, bureau 240;Montr�al;Qu�bec;H3S 2A6;;Lundi, mardi, jeudi 09h00 � 17h00 Mercredi 12h00-20h00, vendredi 13h00-17h00;(514) 342-5678;;(514) 342-6377;cjecdn.qc.ca;;
EMPLOI;EMPLOYMENT;Recherche d�emploi;Job Search;;Centre de recherche d�emploi de C�te-Des-Neiges;;;3600, rue Barclay, bureau 421;Montr�al;Qu�bec;H3S 1K5;;Lundi � vendredi 8h30 � 16h30 (ferm� entre 12h et 13h);(514) 733-3026;;(514) 733-7120;;info@crecdn.com;
EMPLOI;EMPLOYMENT;Recherche d�emploi;Job Search;CLAM;CLAM (Carrefour de liaison et d�aide multiethnique);;;7290, rue Hutchison, bureau 200, 2e �tage;Montr�al;Qu�bec;H3N 1Z1;;M�tro: Parc. Lundi � vendredi 9h-17h00.;(514) 271-8207;;(514) 271-8254;;clam@bellnet.ca;
EMPLOI;EMPLOYMENT;Recherche d�emploi;Job Search;;Collectif des femmes immigrantes;;;7124, rue Boyer (M�tro Jean Talon);Montr�al;Qu�bec;H2S 2J8;;;(514) 279-4246;;(514) 279-8536;;info@cfiq.ca;
EMPLOI;EMPLOYMENT;Recherche d�emploi;Job Search;;Collectif des femmes immigrantes;;;7355 boulevard St-Michel, bureau 102 (M�tro St-Michel);Montr�al;Qu�bec;H2A 2Z9;;"Lundi � vendredi 9h-12h; 13h-17h.";(514) 374-7999;;;;emploi@cfiq.ca;Service gratuit offert pour tout le monde, en fran�ais ou anglais, par RDV. Placement en emploi, en formation ou en stage, cours, etc
EMPLOI;EMPLOYMENT;Recherche d�emploi;Job Search;;Agence OMETZ;;;5151, chemin de la C�te-Sainte-Catherine, bureau 300;Montr�al;Qu�bec;H3W 1M6;;Lundi � jeudi 09h00 � 17h00, vendredi 09h00 � 16h00.;(514) 342-0000;;(514) 342-2371;;info@ometz.ca;Pour personnes de 45 ans+, ou qui ont besion de support addiotionelle, et aussi pour les Juifs.
EMPLOI;EMPLOYMENT;Recherche d�emploi;Job Search;;Emploi Qu�bec;;;6655, chemin de la C�te-des-Neiges, 3e �tage;Montr�al;Qu�bec;H3S 2B4;;"Lundi, mardi, jeudi, vendredi 08h30 � 16h30 ; mercredi 10h00 � 16h30";(514) 872-6530;;;;;
EMPLOI;EMPLOYMENT;Recherche d�emploi;Job Search;;Hirondelle (Services d'Accueil et d'Int�gration des Immigrants);;;4652, rue Jeanne Mance, 2e et 3 e �tages;Montr�al;Qu�bec;H2V 4J4;;"Lundi � vendredi 9h-12h�; 13h-17h";(514) 281-2038;;;;administration@hirondelle.qc.ca;Services pour les nouvelles arrivantes <5 ans.
EMPLOI;EMPLOYMENT;Recherche d�emploi;Job Search;;Petites Mains (formation en couture industrielle);;;7595, boulevard Saint-Laurent;Montr�al;Qu�bec;H2R 1W9;;;(514) 738-8989;;;;info@petitesmains.com;
Assurance emploi;Employment Insurance;;;;Centre Service Canada;Service Canada Center Bureau le plus pr�s (West End office);;5160, boulevard D�carie, #700 (M�tro: Snowdon)Montr�al, Qu�bec   H3X 2T8;;;;;Lundi � vendredi 08h30 � 16h00;1 800 206-7218;1 800 808-6352;;;;Territoirse desservis: C�te-des-Neiges, C�te- Saint-Luc, Saint Laurent, Dorval, Hamstead, Westmount, Mont-Royal, Notre-Dame-de-Gr�ce, Outremont, West Island.
Assurance emploi;Employment Insurance;;;;Downtown office;;Complexe Guy Favreau;200, boulevard Ren� L�vesque Ouest (M�tro: Beaudry);Montr�al;Qu�bec;H2Z 1X4;Beaudry;Lundi � vendredi 08h30 � 16h00.;(514) 522-4444;1 800 206-7218;(514) 283-6085;;;Territoirse desservis: Downtown/Southwest Montreal, Ville Marie, Centre-Sud, Plateau Mont-Royal, Rosemont, Lasalle
Organismes communautaires;Community Organizations;;;;Comit� ch�mage de Montr�al;;;3734, avenue du Parc;Montr�al;Qu�bec;H2X 2J1;;Sur rendez-vous et par t�l�phone de 13h00 � 16h30;(514) 933-5915;;(514) 933-4074;;ccm@comitechomage.qc.ca;
Organismes communautaires;Community Organizations;;;;Comit� ch�mage Est de Montr�al;;;1691, boulevard Pie IX, bureau 302;Montr�al;Qu�bec;H1V 2C3;;Mardi � jeudi 10h00 � 12h00 et 13h30 � 16h00;(514) 521-3283;;;;ccem@ccem.ca;
Organismes communautaires;Community Organizations;;;;Mouvement action ch�mage;;;6839A, rue Drolet, 3e �tage  (M�tro: Jean Talon);Montr�al;Qu�bec;H2S 2T1;;Service par t�l�phone: mardi, jeudi 13h00 � 15h00, mercredi 17h00 � 20h00.;(514) 271-4099;;;;;
Organismes communautaires;Community Organizations;;;;Mouvement action ch�mage Longueuil;;;1194, rue Marquette;Longueuil;Qu�bec;J4K 4H8;;;(450) 670-7615;;;;info@macl.org;Heures limit�es-Appeler avant /Limited hours - call first
FAMILLE PRESTATIONS;FAMILY BENEFITS;;;;Soutien aux enfants;Qu�bec Child Assistance;;Quebec Pension Plan (QPP)/ R�gie des rentes du Qu�bec (RRQ)1055, boulevard Ren� L�vesque Est, 4e �tage;Montr�al;Qu�bec;H2L 4S5;;;(514) 864-3873;(514) 873-4455**;(514) 873-4408;;;Par courrier / By mail: Case postale 7777 // Qu�bec, Qu�bec G1K 7T4
FAMILLE PRESTATIONS;FAMILY BENEFITS;;;;Prestation fiscale canadienne pour enfants (PFCE);Canada Child Tax Benefit (CCTB);;305, boulevard Ren� L�vesque Ouest (pour d�poser les docs);Montr�al;Qu�bec;H2Z 1A6;;;1 800 387-1194;1 800 387-1193;1 819 536-7078;;;Par courrier / By mail: Shawinigan-Sud Tax Centre // 4695 Shawinigan-Sud Boulevard // Shawinigan QC  G9P 5H9
FAMILLE PRESTATIONS;FAMILY BENEFITS;;;;Prime au travail;Work Premium;Aide financi�re pour les travailleurs � faible revenu / Financial assistance for low income workers Revenu Qu�bec - Complexe Desjardins;C.P. 3000, succursale Desjardins;Montr�al;Qu�bec;H5B 1A4;;;1 855 291-6467;(514) 873-4455**;;;;
FAMILLE PRESTATIONS;FAMILY BENEFITS;;;;Cr�dit d�imp�t pour frais de garde;Tax Credit for Child Care Expenses;;Revenu Qu�bec - Complexe Desjardins C.P. 3000 succursale Desjardins;;;;;"Lundi, mardi, jeudi, vendredi 08h30 � 16h30 ; mercredi 10h00 � 16h30";(514) 940-1481;(514) 873-4455**;;;;
FAMILLE PRESTATIONS;FAMILY BENEFITS;;;;Allocation logement;Shelter Allowance;;3, Complexe Desjardins, Tour Nord;Montr�al;Qu�bec;H5B 1A2;;;(514) 940-1481;1 855 291-6467;(514) 873-2916;;;Par courrier / By mail: Minist�re du revenu du Qu�bec  // C.P. 6800, Succ. Desjardins // Montr�al, Qu�bec   H5B 1J5
FAMILLE PRESTATIONS;FAMILY BENEFITS;;;;Directeur de l'�tat civil;Registrar of Civil Status: Records Office for Births, Deaths, and Marriages;;2050, rue Bleury, rez-de chauss�e;Montr�al;Qu�bec;H3A 2J5;Place des Arts;"Lundi � vendredi: 8h30 � 16h30 ;  mercredi 10h00 � 16h30";(514) 644-4545;1 877 644-4545;(514) 864-4640;;;Par courrier / By mail: 2535 boulevard Laurier // Qu�bec (Qu�bec) G1V 5C5
FAMILLE PRESTATIONS;FAMILY BENEFITS;;;;Minist�re de la famille et de l�enfance;;;600, rue Fullum;Montr�al;Qu�bec;H2K 4S7;;;(514) 873-9342;1 877 216-6202;(514) 873-9395;;;Info on daycare, daycare subsidies, addresses of existing daycares To register for a 7$/day daycare: www.laplace0-5.com
FAMILLE PRESTATIONS;FAMILY BENEFITS;;;;R�gime qu�b�cois d�assurance parentale / QPIP;;;;;;;;;1 888 610-7727;;;;;**TTY is a phone service for deaf or hard of hearing people.
FEMMES;WOMEN;;;;AMAL Women Centre (Centre for Muslim Women);;;903, Boul D�carie, Suite 204;Ville St. Laurent;Qu�bec;H4L 3N3;;Lundi � jeudi : 9h30 � 14h30;(514) 855-0330;;;;amalwomencenter@yahoo.ca;. Halal food basket program (once monthly � need to bring bills, lease, proof of income), referrals, crisis counselling, follow up around domestic violence.
FEMMES;WOMEN;;;;Centre des femmes de Montr�al - Women�s Centre of Montreal;;;3585, rue Saint-Urbain;Montr�al;Qu�bec;H2X 2N6;;"Lundi, mercredi, vendredi 09h00 � 17h00�; mardi, jeudi 09h00 � 21h00";(514) 842-4781;;;;spl@centredesfemmesdemtl.org;
FEMMES;WOMEN;;;;Centre des femmes d�ici et d�ailleurs;;;8043, rue Saint-Hubert (Metro: Jarry);Montr�al;Qu�bec;H2R 2P4;;;(514) 495-7728;;;;cdf.iciailleurs@bellnet.ca;
FEMMES;WOMEN;;;;Femmes du monde � C�te-Des-Neiges;Women�s Centre;;6767, chemin de la C�te-des-Neiges, bureau 597;Montr�al;Qu�bec;H3S 2T6;;"Lundi, mercredi, jeudi 09h00 � 17h00 ; mardi 13h00 � 17h00 ; vendredi ferm�";(514) 735-9027;;;;fdmcdn@rocler.com;
FEMMES;WOMEN;;;;Centre des victimes d�agression sexuelle de Montr�al;Montreal Sexual Assault Centre;;Mailing�: 1801, boulevard de Maisonneuve Ouest, bureau 600;Montr�al;Qu�bec;H3H 1J9;;;1 888 933-9007;(514) 934-4504;;;;
FEMMES;WOMEN;;;;Projet Chance (pour m�res c�libataires qui sont �tudiantes � plein temps);;;3950, rue Cavendish, bureau 17;Montr�al;Qu�bec;H4B 2N3;;;(514) 934-6199;(514) 934-1666;;;;CEGEP, University or other professional cours, femmes 18-35 ans.
FEMMES;WOMEN;;;;SOS Violence conjugale;Conjugal Violence Hotline (24h/7jrs);;;;;;;;514) 728-0023;1 800 363-9010;;;sos@sosviolenceconjugale.ca;
FEMMES;WOMEN;;;;Auberge Shalom;;;C.P 386, Succursale Snowdon;Montr�al;Qu�bec;H3X 3Y1;;;514) 731-0833;(514) 485-4783;;;infoaspf@videotron.ca;Counselling, resource and shelter
FEMMES;WOMEN;;;;La Mission Bon Accueil;Welcome Hall Mission;;1148, rue Beaudry;Montr�al;Qu�bec;H2L 3E5;;;(514) 904-1346;;(514) 904-2638;;;Services aux familles: lundi � vendredi 09h00 � 16h00 (effets de scolaire, camp d��t�) Banque de nourriture: mardi et vendredi 09h00 � 12h00 (13h00 et 15h00 sur rendez-vous) Consultations: lundi � vendredi 09h00 � 15h00 (assistance sociale, immigration, logements, bien-�tre, probl�mes familiaux, personnes en crise)
IMMIGRATION;;;;;Centre d�immigration Canada;Canada Immigration Centre (CIC);;1010, rue Saint-Antoine Ouest, 2e �tage;Montr�al;Qu�bec;H3C 1B2;Bonaventure;Lundi � vendredi 08h30 � 16h30;1 888 242-2100;;(514) 496-1881;www.cic.gc.ca;;"Everything must be done by phone or fax; cannot meet anyone at the office"
IMMIGRATION;;;;;Immigration Qu�bec � MIDI;;Minist�re de l�Immigration de la Diversit� et de l'Inclusion;285, rue Notre-Dame Ouest, 4e��tage;Montr�al;Qu�bec;H2Y 1T8;;;(514) 864-9191;;;www.immigration-quebec.gouv.qc.ca/;;Only a mailing address. No one will see you at this address. There are no longer any physical offices for Immigration Quebec. All forms can be found online. Any questions can be answered over the phone.
IMMIGRATION;;;;;Pour transmettre des documents relatifs aux services de la francisation :;;Direction du registraire et des services en ligne;800, boulevard de Maisonneuve Est, bureau 301;Montr�al;Qu�bec;H2L 4L8;;;;;;;;
IMMIGRATION;;;;;MIDI Si�ge social;Head office (administration only);;360, rue McGill;Montr�al;Qu�bec;H2Y 2E9;;;(514) 864-9191;;;;;
Passeport;Passport;;;;Bureau des passeports;;;200, rue Ren�-L�vesque Ouest, Tour Ouest, 8e �tage, bureau 130;Montr�al;Qu�bec;H2Z 1X4;Place d�Armes;Lundi � vendredi 07h30 � 16h30;1 800 567-6868;;;www.passeport.canada.ca;;
Passeport;Passport;;;;Bureau des passeports;;;2089, boulevard Marcel Laurin, bureau 100;Ville St-Laurent;Qu�bec;;;Lundi � vendredi 07h30 � 16h30;;;;;;
Passeport;Passport;;;;Multi-�coute (Help filling out passport applications- $10/form);;;3600, rue Barclay, bureau 460;Montr�al;Qu�bec;H3S 1K5;;;(514) 737-3604;;(514) 737-5631;;;
Organismes communautaires;Community Organizations;;;ALAC;ALAC;;;5165, chemin Queen Mary, bureau;Montr�al;Qu�bec;H3W 1X7;;;(514) 737-3642;;;;info@alac.qc.ca;
Organismes communautaires;Community Organizations;;;ALPA;ALPA (Accueil liaison pour arrivants);;;2030, boulevard Pie IX, bureau 309;Montr�al;Qu�bec;H1V 2C8;;Lundi � vendredi 8h-16h00;(514) 255-3900;;(514) 255-6455;;;
Organismes communautaires;Community Organizations;;;CARI;CARI (Centre d�accueil et de r�f�rence pour immigrants);;;774, boulevard D�carie;Ville Saint-Laurent;Qu�bec;H4L 3L5;Du College;"Lundi � vendredi 9h � 12h ; 13h-17h. Sur RDV.";(514) 748-2007;;(514) 748-2766;;carist@cari.qc.ca;"Client�le : Toutes cat�gories. Services / Activit�s : Aide � remplir les formulaires (frais minimimes pour Res.Perm. 5+ ann�es) ; programme �Famille et rapprochement interculturel � (logement, budget, inscription � �coles, etc) ; cours de francisation ; recherche d�emploi ; cliniques d�imp�t pour familles � faible revenue (moins $26,000/ann�e, frais de $5) ; clinique juridique une fois par mois (par RDV) ; activit�s de jumelage, artisanat, informatique."
Organismes communautaires;Community Organizations;;;CLAM;CLAM (Carrefour de liaison et d�aide multi-ethnique);;;7290, rue Hutchison, 2e �tage;Montr�al;Qu�bec;H3N 1Z1;Parc;Lundi � vendredi 9h00-17h00.;(514) 271-8207;;(514) 271-8254;;clam@bellnet.ca;
Organismes communautaires;Community Organizations;;;CSAI;CSAI (Centre social d�aide aux immigrants);;;6201, rue Laurendeau;Montr�al;Qu�bec;H4E 3X8;Jolicoeur;Lundi � vendredi 08h30 � 16h30. Peux faire des rendez-vous sur ligne.;(514) 932-2953;;(514) 932-4544;centrecsai.org/contact-csai;;
Organismes communautaires;Community Organizations;;;CSAI;CSAI (Centre social d�aide aux immigrants);;;3782, rue Wellington;Montr�al;Qu�bec;H4E 3X8;De l��glise;Lundi � vendredi 08h30 � 16h30. Ils offrent tous les services de CSAI sauf sur l�emploi;(514) 761-3333;;(514) 761-1463;;;"Services offertes en fran�ais, anglais, cr�ole, arabe, espagnol, serbo-croate, dari, persan. Client�le : R�sidents permanents depuis moins de 5 ans, r�fugi�s. Services / Activit�s : Accueil et intervention psycho sociales ; Information sur les aspects l�gaux de l�immigration, sur la protection des droits reconnus et les diff�rents syst�mes : sant�, scolaire, judicaires ; cours de francisation ; cours d�informatique ; recherche d�emploi et de logements ; Clinique d�imp�t pour familles � faible revenu (prendre RDV)."
Organismes communautaires;Community Organizations;;;;La Maisonn�e;;;6865, avenue Christophe Colombe, (coin B�langer);Montr�al;Qu�bec;H2S 2H3;Jean Talon;Lundi � vendredi 9h � 17h00;(514) 271-3533;;(514) 271-1910;;info@lamaisonnee.org;"Client�le : Immigrants re�us, demandeurs d�asile, r�fugi�s accept�s. Services / Activit�s : Aide � remplir les formulaires ; conseils juridiques lorsque stagaires en droit ; d�pannage alimentaire (pour tous) ; ateliers pour l�employabilit� (pour les residents permanentes depuis moins de 5 ans principalement) ; cours de francisation, d�espagnol, et d�anglais ; aide aux devoirs et prevention du d�crochage scolaire; activit�s communautaires diverses ; clinique d�imp�t pour individus (<$20,000) et familles (<$26,000) � faible revenu (prendre RDV)."
Organismes communautaires;Community Organizations;;;;L�Hirondelle;;;4652, rue Jeanne Mance, 2e �tage;Montr�al;Qu�bec;H2V 4J4;Mont Royal, Bus 97 ou le 11;Lundi � vendredi 9h � 12h00, 13h � 17h00.;514) 281-2038;(514) 281-5696;;;administration@hirondelle.qc.ca;"Client�le : R�sidents permanents depuis moins de 5 ans, demandeurs d�asile, r�fugi�s accept�s. Services / Activit�s : Aide � remplir des formulaires et assistance dans toute la demarche d�immigration ; recherche d�emploi et de logement ; traduction ; aide alimentaire."
Organismes communautaires;Community Organizations;;;PROMIS;PROMIS (Promotion multiculture int�gration soci�t� nouvelle);;;3333, chemin de la C�te-Sainte-Catherine (corner Decelles);Montr�al;Qu�bec;H3T 1C8;;Lundi � vendredi 09h00 � 17h00;(514) 345-1615;;(514) 345-1088;http://promis.qc.ca/;;"Client�le : Tous ! Service / Activit�s : Aide � remplir les formulaires (pas passport) ; Officier asserment� sur place (prendre rdv) ; Aide � la recherche d�emploi ; Aide aux familles (v�tements, r�f�rences pour nourriture) : Francisation ; cours interculturel pour femmes d�Asie du Sud (artisanat, couture)."
Organismes communautaires;Community Organizations;;;SIARI;SIARI (Service d�interpr�te, d�aide et de r�f�rence aux immigrants);;;6767, chemin de la C�te-des-Neiges, bureau 499;Montr�al;Qu�bec;H3S 2T6;;;(514) 738-4763;;514) 738-4925;;;"Client�le : Toutes cat�gories ! Service / Activit�s : Cours de francais, d�anglais, d�informatique. Cours de couture (en tamoul et en bengali) gratuits mais doivent fournir leur propre mat�riel ; camp d��t� pour les enfants."
Organismes communautaires;Community Organizations;;;PRAIDA;PRAIDA (Programme r�gional d�aide aux demandeurs d�asile);;;5700, chemin de la C�te-des-Neiges, 3e �tage (CLSC CDN);Montr�al;QC;H1T 3X2;;;(514) 731-8531 ext.2880;;;;;"Client�le : Demandeus d�asile. Service / Activit�s : Information g�n�rale (pas d�aide pour remplir formulaires) ; r�f�rence � des avocats ; assistance financi�re ; aide pour trouver logement."
Organismes communautaires;Community Organizations;;;;Solidarity Across Borders;;;1500 de Maisonneuve West, # 204;Montr�al;QC;H3G 1N1;;;;;;;solidaritesansfrontieres@gmail.com;Client�le : People who have exhausted their options legally. This is a volunteer service, so please do not give this number out unless people seem to have �tried everything�. Service / Activit�s : Monthly meet-up to help people with information and mutual support. Find out when the next clinic is happening at http://www.solidarityacrossborders.org/en/support-clinic-for-migrants. Can help people without status/papers (or awaiting status/papers) get access to services. DIY Humanitarian Application. * if you are facing deportation (failed refugee claim, criminal record, non-renewal of visa, etc) * if you are having difficulties accessing services because of immigration status * if you want to connect with others struggling with precarious immigration status �
IMP�TS;INCOME TAXES;;;;Agence du revenu du Canada;Canada Revenue Agency  - Revenu Canada;;305, boulevard Ren� L�vesque Ouest;Montr�al;Qu�bec;H2Z 1A6;;;1 800 959-8281;1 800 959-7383;;www.rc.qc.ca;;Par courrier / By mail: C.P. 4000, Succ. Bureau Chef, Shawinigan-Sud, Qu�bec G9N 7V9
IMP�TS;INCOME TAXES;;;;Revenu Qu�bec;;Complexe Desjardins, Tour Nord, basilaire 1;150, rue Sainte-Catherine Ouest;Montr�al;Qu�bec;H5B 1A4;;;(514) 864-6299;1 800 267-6299;;;;Par courrier / By mail: Revenu Qu�bec // C. P. 3000, succursale Place-Desjardins // Montr�al, Qu�bec H5B 1A4
IMP�TS;INCOME TAXES;;;;Clinique d'impots;Income Tax: Help with Returns / Aide avec les d�clarations d�imp�t;;576, rue Sainte-Catherine Est, bureau 110;Montr�al;Qu�bec;H2L 2E1;Beaudry;;(514) 990-3789;;;;;Par rendez-vous / By appointment. Professional accountants with good rates.
LGBTQ+ Ressources;Resources for LGBTQ+ people;;;;AGIR (Action LGBTQ with Immigrant and Refugees);;;;;;;;;;;;;soutien.support@agirmontreal.org;Pas d�adresse  Groupes de discussion, informations, ressources et fait la d�fense des droits de la communaut� migrante LGBTQ+ (demandeurs d�asile, r�fugi�s, immigrants et personnes sans papiers
LGBTQ+ Ressources;Resources for LGBTQ+ people;;;;Arc-en-ciel d�afrique;;;576 Sainte-Catherine Est, bureau 104;Montr�al;QC;H2L 2E1;;;(514) 373-1953;;;;info@arcencieldafrique.org;"Bureaux ouverts du lundi � vendredi � de 10h � 18h ; nouveaux membres uniquement le vendredi de 13h � 17h. Accompagnement, d�fense des droits, et activit�s pour les personnes LGBT afro-carib�ennes, aide avec le processus d�immigration"
LGBTQ+ Ressources;Resources for LGBTQ+ people;;;;Centre communautaire des gaies et lesbiennes de Montr�al;;;2075 rue Plessis, bureau 110;Montr�al;QC;H2L 2Y4;;Lundi � vendredi 13h � 18h00.;(514) 528-8424;;;;info@ccglm.org;Clinique d�information juridique gratuite, r�f�rences, biblioth�que.
LGBTQ+ Ressources;Resources for LGBTQ+ people;;;;Centre de solidarit� lesbienne;;;4126 rue St-Denis, bureau 301;Montr�al;QC;H2W 2M5;;Bureaux ouverts du lundi � jeudi de 9h � 16h;(514) 526-2452;;;;info@solidaritelesbienne.qc.ca;Groupe de discussion, soutien pour lesbiennes qui vivent une situation de violence conjugale.
LGBTQ+ Ressources;Resources for LGBTQ+ people;;;;Gai �coute;;;C.P. 1006, succursale C;Montr�al;QC;H2L 4V2;;;1 888 505-1010;(514) 866-0103;;;aide@gaiecoute.org;"Ligne t�l�phonique 24 heures sur 24 ; �coute et r�f�rences."
LGBTQ+ Ressources;Resources for LGBTQ+ people;;;;GAPVIES;;;3330 rue Jarry Est;Montr�al;QC;H1Z 2E8;;;(514) 722-5655;;;;gapvies@gapvies.ca;Ligne t�l�phonique pour personne s�ropositive des communaut�s ha�tienne et africaine
LGBTQ+ Ressources;Resources for LGBTQ+ people;;;;R�ZO;;;2075 rue Plessis, bureau 207;;;;;;(514) 521-7778;;;;aide@gaiecoute.org;Servies de sant� pour hommes gais et bisexuels, incluant les travailleurs du sexe.
LGBTQ+ Ressources;Resources for LGBTQ+ people;Organismes pour jeunes LGBTQ+ (14 � 25 ans);;;� deux mains;Head and Hands (pour les personnes de 12 � 25 ans);;5833 rue Sherbrooke Ouest;Montr�al;QC;H4A 1X4;;;(514) 481-0277;;;;info@headandhands.ca;Clinique de sant� (personnes trans sont bienvenuEs), soutien psychosocial pour individuEs et familles, soutien l�gal, d�pannage alimentaire, �change de seringues, programme pour les jeunnes parents.
LGBTQ+ Ressources;Resources for LGBTQ+ people;;;;Jeunesse Lambda;;;1575 rue Amherst;Montr�al;QC;H2L 3L4;;;(514) 528-7535;;;;info@jeunesselambda.org;Discussion le vendredi soir, soutien, activit�s en groupe. En francais.
LGBTQ+ Ressources;Resources for LGBTQ+ people;Organismes pour jeunes LGBTQ+ (14 � 25 ans);;;Projet 10;;;1575 rue Amherst;Montr�al;QC;H2L 3L4;;;(514) 989-4585;;;;questions@p10.qc.ca;Activit�s les jeudis soirs 18h30-20h30. Ligne d��coute de mardi � jeudi 12h-18h00.
LGBTQ+ Ressources;Resources for LGBTQ+ people;Organismes pour personnes trans;;;Action Sant� Travesti(e)s et Transexuel(le)s du Qu�bec (ASTT(e)Q);;;300 rue Sainte-Catherine E;Montr�al;QC;H2X 3E7;;;(514) 847-0067 p.207;;;;info@astteq.org;Accompagnement et d�fense de droit, activit�s en groupe, �change de seringues, clinique juridique pour changement de nom.
LGBTQ+ Ressources;Resources for LGBTQ+ people;Organismes pour personnes trans;;;ATQ (L�Aide aux transexuelles du Qu�bec);;;CP 476, Succ. C;Montr�al;QC;H2L 4K4;;;514-254-9038;1 855 909 9038 x 3;;;ecoute@atq1980.org;Ligne d��coute et de r�f�rences, activit�s pour les familles de personnes trans.
LGBTQ+ Ressources;Resources for LGBTQ+ people;Organismes pour personnes trans;;;Centre de lutte contre l�oppression des genres;;;2110 rue Mackay;Montr�al;Qu�bec;H3G 1M8;;Lundi � vendredi : 9h-17h00;(514) 848-242 x7431;;;;;Support par les pairs, r�f�rences, �change de seringues, cartes d�identit� avec le nom et les marquers de gendre de pr�f�rence.
LGBTQ+ Ressources;Resources for LGBTQ+ people;Organismes pour personnes trans;;;Trans Lifeline;;;;;;;;;1 877 330-6366;;;;;Ligne t�l�phonique pour et par personnes trans.
LOGEMENT;HOUSING;;;;R�gie du logement;Rental Board;;Village olympique, Aile/Wing D 5199 rue Sherbrooke Est;Montr�al;Qu�bec;H1T 3X1;;Lundi � vendredi: 8h30 � 12h00 et 13h00 � 16h30;(514) 873-2245;;(514) 864-8077;www.rdl.gouv.ca;;
LOGEMENT;HOUSING;;;;D�partement des inspections;Division des permis et des inspections C�te-des-Neiges/NDG/ Inspection Department � Borough of C�te-des-Neiges/NDG;;5160, boulevard D�carie, bureau 865, rez-de-chauss�e;Montr�al;Qu�bec;H3X 2H9;;Lundi � vendredi: 8h30 � 12h00 et 13h30 � 16h30,  mercredi matin - ferm�;(514) 872-5160;;(514) 872-2765;;;
LOGEMENT;HOUSING;;;;R�gie du b�timent;;;545, rue Cr�mazie Est, 4� �tage;Montr�al;Qu�bec;H2M 2V2;;Lundi, mardi, jeudi, vendredi 08h30 � 16h30 Mercredi 10h30 � 16h30;(514) 873-0976;1 800 361-0761;1 866-315-0108;;;
LOGEMENT;HOUSING;;;;Soci�t� environnementale de C�te-des-Neiges;;;6767, chemin de la C�te-des-Neiges, bureau 591;Montr�al;Qu�bec;H3S 2T6;;;(514) 738-7848;;(514) 738-8690;;;Will pick-up and store belongings (at a warehouse on Jean Talon) for evictions in CDN/NDG. Call borough office for other areas.
LOGEMENT;HOUSING;;;;Allocation logement;Shelter Allowance � Revenu Qu�bec;;150, rue Sainte-Catherine Ouest 3 Complexe Desjardins,Tour Nord;Montr�al;QC;H5B 1A4;;Lundi � vendredi 08h30 � 16h30;(514) 864-6299;1 800 267-6299;;www.revenu.gouv.qc.ca;;Par courrier: Direction principale des relations avec la client�le des particuliers, C.P. 3000, succursale Place-Desjardins, Montr�al, Qu�bec, H5B 1A4
LOGEMENT;HOUSING;;;;Acc�s Montr�al;;;5160, boulevard D�carie, Rez-de-chauss�e;Montr�al;Qu�bec;H3X;;Lundi � vendredi 8h30 � 17h00;(514) 872-1111;;(514) 872-5173;;;
Organismes communautaires;Community Organizations;;;;Arnold Bennett tenants� rights hotline and walk-in clinic;;;6462, rue Sherbrooke Ouest, bureau 2;;;;Vend�me, Bus 105;Lundi � Vendredi 09h00 � 21h00 Samedi / Saturday: 10h30 � 13h00;(514) 488-0412;;;;;
Organismes communautaires;Community Organizations;;;;Barreau du Qu�bec;;Service t�l�phonique du logement / Housing problems telephone line;;;;;;Lundi � vendredi 08h30 � 16h30 / Monday to Friday 08h30 - 16h30;1 844 227-3790;;;;;Premi�re consultation t�l�phonique gratuite / First telephone consultation is free.
Organismes communautaires;Community Organizations;;;;OEIL (Organisation d��ducation et d�information logement);;;3600, rue Barclay, bureau 344;Montr�al;Qu�bec;H3S 1K5;;Lundi: 14h00 � 17h00, mercredi: 9h30 � 12h00, 14h00 � 17h00, vendredi: 09h30 � 12h00;(514) 738-0101;;(514) 738-2231;;oeilcdn@videotron.ca;
Organismes communautaires;Community Organizations;;;;POPIR (Projet d�organisation populaire d�information et de regroupement);;;4017, rue Notre-Dame Ouest;Montr�al;Qu�bec;H4C 1R3;Place Saint-Henri;Lundi � jeudi 09h00 � 12h00 et 13h00 � 16h30 (mercredi: ferm� de 9h00 � 12h00);(514) 935-4649;;(514) 935-4067;;;Pour les personnes qui ont besoin d�un local accessible, il peux faire une RDV � une autre local.
Organismes communautaires;Community Organizations;;;;Association des locataires de Villeray;;;7378, rue Lajeunesse, bureau 213;Montr�al;Qu�bec;H2R 2H8;;Mardi et jeudi de 13h30 � 16h30 (RDV de soir disponible);(514) 270-6703;(514) 270-3500;;;alv@cooptel.qc.ca;
Organismes communautaires;Community Organizations;;;;Comit� d�action de Parc-Extension;;;419, rue Saint-Roch, local SS03 (sous-sol);Montr�al;Qu�bec;H3N 1K2;;Mardi, mercredi et jeudi 9h30 � 11h30, 13h30 � 16h30.;(514) 278-6028;;;;cape@cooptel.qc.ca;RDV dispo en espagnol aussi.
Organismes communautaires;Community Organizations;;;;Comit� d�action des citoyen(ne)s de Verdun;;;3972, rue Verdun;Montr�al;Qu�bec;H4G 1K9;;"lundi: 9h00 � 12h00, 13h00 � 16h30 ; mardi 13h00 � 16h30 ; mercredi 9h00 � 12h00 ; jeudi 13h00 � 16h30.";(514) 769-2228 ext. 101;;;;;Par RDV est mieux, il y a des consultations sans rendez-vous sur
Organismes communautaires;Community Organizations;;;;Comit� logement Ahuntsic-Cartierville;;;10780, rue Laverdure, bureau 208 et 211;Montr�al;Qu�bec;H3L 2L9;;;(514) 331-1773;;;;info@comitelogement.com;
Organismes communautaires;Community Organizations;;;;Comit� logement Lachine/Lasalle;;;426, rue St-Jacques Ouest;Montr�al;Qu�bec;H8R 1E8;;Mardi, jeudi et vendredi 09h00 � 12h00 et 13h00 � 17h00;(514) 544-4294;;;;;
Organismes communautaires;Community Organizations;;;;Comit� logement Petite-Patrie;;;6839A, rue Drolet;Montr�al;Qu�bec;H2S 2T1;;Lundi � jeudi, de 9h30 � 12h et 13h30 � 16h30.;(514) 272-9006;;;;clpp@bellnet.ca;
Organismes communautaires;Community Organizations;;;;Comit� logement Plateau Mont-Royal;;;4450, rue Saint-Hubert, bureau 328;Montr�al;Qu�bec;H2J 2W9;;Lundi, mercredi, jeudi 9h � 12h et 13h30 � 17h00, mardi 9h-12h.;(514) 527-3495;;;;clplateau@clpmr.com;
Organismes communautaires;Community Organizations;;;;Comit� logement Rosemont;;;5350, rue Lafond, bureau R-145;Montr�al;Qu�bec;H1X 2X2;;Lundi � vendredi 09h00 � 17h00;(514) 597-2581;;;;info@comitelogement.org;
Organismes communautaires;Community Organizations;;;;Comit� logement Ville-Marie;;;1710, rue Beaudry, bureau 26;Montr�al;Qu�bec;H2L 3E7;;;(514) 521-5992;;;;info@clvm.org;
Organismes communautaires;Community Organizations;;;;Entraide logement Hochelaga-Maisonneuve;;;1475, av. Bennett, bureau 2;Montreal;QC;H1V 1S5;;Lundi au jeudi, de 13h00 � 16h00.;(514) 528-1634;;;;elhm@cam.org;
Organismes communautaires;Community Organizations;;;;Infologis de l�Est de l��le de Montr�al;;;2532, rue Des Ormeaux;Montr�al;Qu�bec;H1L 4X5;;Lundi � vendredi 9h00 � 12h00 et 13h00 � 16h00 (durant l��t�, vendredi�: 9h � 12h);(514) 354-7373;;;;info@infologis.ca;
Organismes communautaires;Community Organizations;;;;Soci�t� d'Am�lioration Pointe St-Charles;;;1945, rue Mullins, bureau 110;Montr�al;Qu�bec;H3K 1N9;;;(514) 932-7742;;;;infolog@rilsocam.org;
Recherche d�un appartement;Apartment Search;;;;Face � Face;;;980, rue Saint-Antoine Ouest, bureau 101B;Montr�al;Qu�bec;H3C 1A8;;;(514) 934-4546;;(514) 934-0063;;info@faceafacemontreal.org;
Recherche d�un appartement;Apartment Search;;;ROMEL;ROMEL;;;6555, chemin de la C�te-des-neiges, suite 400;Montr�al;Qu�bec;H3S 2A6;;Lundi � vendredi de 9h � 12h, 13h � 17h (vendredi ferm� � 16h);(514) 341-1057;;(514) 341-8404;;;
Information pour les propri�taires;Info for Landlords;;;CORPIQ;CORPIQ;;;750, boulevard Marcel-Laurin #131;Saint-Laurent;Qu�bec;H4M 2M4;;Lundi � vendredi, 8h30-16h30. Frais d�adh�sion : $179;(514) 748-1921;1 800 548 1921;;;corpiq@corpiq.com;
Information pour les propri�taires;Info for Landlords;;;;Association des Propri�taires du Qu�bec;;;10720 boulevard Saint-Laurent;Montr�al;Qu�bec;H3L 2P7;;;(514) 382-9670;;(514) 382-9676;;;
LOGEMENT SOCIALE;SOCIAL HOUSING;;;;OMHM - Office municipal d�habitation de Montr�al (HLM) - Low-Cost Housing Office;;;415, rue Saint-Antoine Ouest;Montr�al;Qu�bec;H2Z 1H8;Bonaventure;;(514) 872-6442;(514) 868-5588;(514) 868-5966;;;
LOGEMENT SOCIALE;SOCIAL HOUSING;;;;F�d�ration des coop�ratives d�habitation Intermunicipal du Montr�al M�tropolitain;;;7000, avenue du Parc Bureau 206;Montr�al;Qu�bec;H3N 1X1;;Heures d��t�: lundi � jeudi 8h30 � 17h00, vendredi 09h00 � 12h00 Heures d�hiver: lundi � vendredi 9h00 � 17h00;(514) 843-6929;;;;info@fechimm.coop;Listing of available apartments can be found at fechimm.coop/en/cooperatives
LOGEMENT SOCIALE;SOCIAL HOUSING;;;;F�d�ration des locataires de HLM du Qu�bec (FLHLMQ);;;2520, avenue Lionel Groulx, bureau 202;Montr�al;Qu�bec;H3J 1J8;;;(514) 521-1485;;(514) 521-6444;;info@flhlmq.com;
LOGEMENT SOCIALE;SOCIAL HOUSING;;;;F�d�ration des OSBL d�habitation de Montr�al (FOHM);;;2310, boulevard de Maisonneuve Est;Montr�al;Qu�bec;H2K 2E7;;;(514) 527-6668;;(514) 527-7388;;info@flhlmq.com;
LOGEMENT SOCIALE;SOCIAL HOUSING;;;;FRAPRU (Front d�action populaire en r�am�nagement urbain);;;1431, rue Fullum, Bureau 201;Montr�al;Qu�bec;H2K 0B5;;;(514) 522-1010;;(514) 527-3403;;frapru@frapru.qc.ca;
LOGEMENT SOCIALE;SOCIAL HOUSING;;;;Groupe conseil en d�veloppement de l�habitation (Groupe CDH);;;1000, rue Amherst, bureau 201;Montr�al;Qu�bec;H2L 3K5;;;(514) 849-7800;;;;;
LOGEMENT SOCIALE;SOCIAL HOUSING;;;;R�sidence Caldwell (Pour personnes �g�es);;;5750, rue Lemieux;Montr�al;Qu�bec;H3W 3G1;;;(514) 737-7569;;;;;
LOGEMENT SOCIALE;SOCIAL HOUSING;;;;SHDM (Soci�t� d�habitation et de d�veloppement de Montr�al);;;800, boulevard de Maisonneuve Est, bureau 2200, 22e �tage;Montr�al;Qu�bec;H2L 4L8;;Lundi � vendredi 08h30 � 16h30;(514) 380-7436;;(514) 380-2101;;;
LOGEMENT SOCIALE;SOCIAL HOUSING;;;;SHQ (Soci�t� d�habitation du Qu�bec);;;500, boulevard Ren� L�vesque Ouest, 5e �tage;Montr�al;Qu�bec;H2Z 1W7;;;1 800 463-4315;;(514) 873-8340;;;
ORGANISMES COMMUNAUTAIRES DE C-D-N;C-D-N COMMUNITY ORGANIZATIONS;;;;Association des parents (Joujouth�que, Toy Library);;;6767, chemin de la C�te-des-Neiges, bureau 498;Montr�al;Qu�bec;H3S 2T6;;"Lundi, mercredi, vendredi 09h30 � 17h00 ; mardi, samedi, dimanche 09h30 � 16h30 Jeudi 14h00 � 16h30";(514) 341-2844;;(514) 341-4869;;;
ORGANISMES COMMUNAUTAIRES DE C-D-N;C-D-N COMMUNITY ORGANIZATIONS;;;;Baobab familial;;;6767, chemin de laC�te-des-Neiges, bureau 599;Montr�al;Qu�bec;H3S 2T6;;;(514) 734-4097;;(514) 734-0244;;information@baobabfamilial.org;Lundi 13h00 � 17h00, mardi, jeudi 09h00 � 17h00, vendredi 09h00 � 12h00
ORGANISMES COMMUNAUTAIRES DE C-D-N;C-D-N COMMUNITY ORGANIZATIONS;;;;Black Community Resource Centre;;;6767, chemin de la C�te-des-Neiges, suite 497;Montr�al;Qu�bec;H3S 2T6;;;(514) 342-2247;;(514) 342-2283;;info@bcrcmontreal.com;
ORGANISMES COMMUNAUTAIRES DE C-D-N;C-D-N COMMUNITY ORGANIZATIONS;;;;Centre communautaire de loisir C�te-Des-Neiges;;;5347, chemin de la C�te-des-Neiges;Montr�al;Qu�bec;H3T 1Y4;;Lundi � vendredi 09h30 � 19h30, samedi 09h30 � 16h00;(514) 733-1478;;(514) 733-7481;;secretariat@cclcdn.qc.ca;
ORGANISMES COMMUNAUTAIRES DE C-D-N;C-D-N COMMUNITY ORGANIZATIONS;;;;Centre communautaire de loisir C�te-Des-Neiges;;;4880, avenue Van Horne;Montr�al;Qu�bec;H3W 1J3;;;(514) 342-9988;;;;;"Lundi � vendredi 09h30 � 21h00; samedi, dimanche 08h30 � 18h00"
ORGANISMES COMMUNAUTAIRES DE C-D-N;C-D-N COMMUNITY ORGANIZATIONS;;;;Communaut� S�pharade Unif�e de Qu�bec;Unified Sephardic Community of Quebec;;5151, chemin de la C�te-Sainte-Catherine, Suite 216;Montr�al;Qu�bec;H3W 3G2;;;(514) 733-4998;;;;info@csuq.org;Lundi � jeudi 09h00 � 17h00, vendredi 08h30 � 16h00.
ORGANISMES COMMUNAUTAIRES DE C-D-N;C-D-N COMMUNITY ORGANIZATIONS;;;;Conseil communautaire C�te-Des-Neiges;;;6767, ch de la C�te-des-Neiges, bureau 695;Montr�al;Qu�bec;H3S 2T6;;;(514) 739-7731;;(514) 739-7757;;coordination@conseilcdn.qc.ca;
ORGANISMES COMMUNAUTAIRES DE C-D-N;C-D-N COMMUNITY ORGANIZATIONS;;;;Eco-Quartier;;;6767, ch de la C�te-des-Neiges, bureau 591;Montr�al;Qu�bec;H3S 2T6;;Mardi � vendredi 10h00 � 18h00, samedi 10h00 � 13h00;(514) 738-7848;;;;info@socenv.ca;
ORGANISMES COMMUNAUTAIRES DE C-D-N;C-D-N COMMUNITY ORGANIZATIONS;;;;Maison des jeunes;;;3220, avenue Appleton;Montr�al;Qu�bec;H3S 2T3;;;(514) 872-1767;;;;mdjcdn2000@gmail.com;
ORGANISMES COMMUNAUTAIRES DE C-D-N;C-D-N COMMUNITY ORGANIZATIONS;;;;Mountain Sights Community Centre;;;7802, rue Mountain Sights;Montr�al;Qu�bec;H4P 2B2;;;(514) 737-4644;;(514) 737-4142;;c.c.m.s@videotron.ca;
ORGANISMES COMMUNAUTAIRES DE C-D-N;C-D-N COMMUNITY ORGANIZATIONS;;;;NDG Community Council;Conseil Communautaire NDG;;5964, avenue Notre-Dame de Gr�ce, #204;Montr�al;Qu�bec;H4A 1N1;;;(514) 484-1471;;;;ndgcc@ndg.ca;
ORGANISMES COMMUNAUTAIRES DE C-D-N;C-D-N COMMUNITY ORGANIZATIONS;;;;Women on the Rise;;(Support programs and services for parents with children from 0-5 years old);6870 rue de Terrebonne;Montr�al;Qu�bec;H4B1C5;;;(514) 485-7814;;;;womenontherise@bellnet.ca;
ORGANISMES COMMUNAUTAIRES DE C-D-N;C-D-N COMMUNITY ORGANIZATIONS;;;;Agence OMETZ;;;5151, chemin de la C�te-Sainte-Catherine, bureau 300;Montr�al;Qu�bec;H3W 1M6;;Lundi � jeudi 09h00 � 17h00, vendredi 09h00 � 16h00.;(514) 342-0000;;(514) 342-2371;;Email : info@ometz.ca;Aide avec la recherche d�emploi pour personnes de 45 ans+, ou qui ont besion de support addiotionelle, et aussi pour les Juifs. Ils offrent aussi des autres supports
ORGANISMES COMMUNAUTAIRES DE C-D-N;C-D-N COMMUNITY ORGANIZATIONS;;;YM YWHA;YM YWHA;;(Jewish Community Centre);5400, rue Westbury;Montr�al;Qu�bec;H3W 2W8;;Lundi, Mercredi 04h45 � 22h30, Mardi, Jeudi 05h45 � 22h30 Vendredi 04h45 � 16h30, Samedi 07h30 � 21h00, Dimanche 07h30 � 20h00;(514) 735-6551;;;;;
PENSIONS;;;;;Pensions de la s�curit� de la vieillesse;Old Age Security (OAS) Centre Service Canada / Service Canada Center;Bureau le plus pr�s (West End office):;5160, boulevard D�carie, bureau 700;Montr�al;Qu�bec;H3X 2H9;Snowdon;Lundi � vendredi 08h30 � 16h00.;1 800 277-9914;1 800 277-9915;1 418 648-2470;;;Press 1 for pension.
PENSIONS;;;;;Pensions de la s�curit� de la vieillesse;Old Age Security (OAS) Centre Service Canada / Service Canada Center;Downtown Office:;Complexe Guy Favreau, Suite 034 200 boulevard Ren� Levesque Ouest;Montr�al;Qu�bec;H2Z 1X4;Place des Arts;Lundi � vendredi�: 08h30 � 16h00;;;;;;Par courrier / By mail: C.P. 1816, Qu�bec, Qu�bec   G1K 7L5
PENSIONS;;;;;R�traite Qu�bec  (Quebec Pension Plan);;;1055, boulevard Ren� L�vesque Est;Montr�al;Qu�bec;H2L 4S5;Berri;;(514) 873-2433;;(514) 873-4408;;;Par courrier / By mail: Case Postale 5200, Qu�bec, Qu�bec   G1K 7S9.
PERSONNES �G�ES;SENIORS;Organismes Communautaires;Community Organizations;;Cummings Jewish Centre For Seniors (Golden Age Association);;;5700, avenue Westbury 3 Carr� Cummings Montr�al;;Qu�bec;H3W 3E8;;;(514) 342-1234;;(514) 739-6899;;;Helps with applications for compensation for Holocaust Survivors from Germany.
PERSONNES �G�ES;SENIORS;Organismes Communautaires;Community Organizations;;Centre des a�n�(e)s de C�te-Des-Neiges (fran�ais seulement);;;6600, avenue Victoria bureau 101;Montr�al;Qu�bec;H3W 3G7;;;(514) 344-1210;;;;;
PERSONNES �G�ES;SENIORS;Organismes Communautaires;Community Organizations;;NDG Senior Citizen Council;;;88, rue Ballanthyne North;Montr�al;Qu�bec;H4X 2B8;;;(514) 487-1311;;(514) 487-1203;;info@ndgscc.ca;Helps with applications for Canadian pension, Quebec pension, HLM, Shelter allowance, transport adapt�. Accompagniment and transport to medical appts, day programs, etc
PERSONNES �G�ES;SENIORS;Organismes Communautaires;Community Organizations;;West Island Citizen Advocacy;;;68, rue Prince-Edward;Pointe-Claire;Qu�bec;H9R 4C7;;Lundi � vendredi : 09h30 � 17h00;(514) 694-5850;;;;wica@qc.aibn.com;
PERSONNES �G�ES;SENIORS;Services b�n�voles pour personnes �g�es;Seniors� Volunteer Support Services;;Centre de b�n�volat de CDN;CDN Volunteer Centre;;4945, ch de la C�te-des-Neiges, bureau 6;Montr�al;Qu�bec;H3V 1H5;;Lundi � jeudi 08h30 � 18h00, vendredi 08h30 � 11h30;(514) 340-1072;;(514) 340-0343;;;Volunteer support services - friendly visits, shopping assistance, accompagnement pour RDV m�dical, mais pas de transport, daily calls to check that everything is OK.
PERSONNES �G�ES;SENIORS;Services b�n�voles pour personnes �g�es;Seniors� Volunteer Support Services;;Entraide B�n�vole M�tro;;;1801, boulevard de Maisonneuve Ouest, Suite #750;Montreal;Qu�bec;H3H 1J9;;Lundi au vendredi 8h30 � 16h30;(514) 939-9575;;(514) 934-3776;;ebmmetro@vif.com;
PERSONNES �G�ES;SENIORS;Services b�n�voles pour personnes �g�es;Seniors� Volunteer Support Services;;Centre action b�n�volat de Ouest de l��le;West Island Volunteer Centre;;1, rue de l��glise;Sainte-Anne-de-Bellevue;Qu�bec;H9X 1W4;;;(514) 457-5445;;;;info@volunteerwestisland.org;
PERSONNES �G�ES;SENIORS;Services b�n�voles pour personnes �g�es;Seniors� Volunteer Support Services;;CLSC Ren� Cassin;;;5800, rue Cavendish, 6e �tage;C�te-Saint-Luc;Qu�bec;H4W 2T5;;Lundi � vendredi 08h30 � 18h00, samedi � dimanche 08h00 � 16h00;(514) 484-7878;;;;;
PERSONNES �G�ES;SENIORS;Services b�n�voles pour personnes �g�es;Seniors� Volunteer Support Services;;Ligne R�f�rence-A�nes;;;;;;;;Lundi � vendredi 9h � 16h00.;(514) 694-6404;;;www.ainesmtl.ca;;
PERSONNES �G�ES;SENIORS;Services b�n�voles pour personnes �g�es;Seniors� Volunteer Support Services;;Ligne de r�f�rence pour les a�n�s;;;;;;;;;(514) 527-0007;;;;;
PERSONNES �G�ES;SENIORS;Services b�n�voles pour personnes �g�es;Seniors� Volunteer Support Services;SARPAD;SARPAD;;;6555, chemin de la C�te-des-Neiges, bureau 442;Montr�al;Qu�bec;H3S 2A6;;"Lundi � jeudi 9h � 12h et 13h � 17h; vendredi de 9h � 16h30.";(514) 737-2454;;;;sarpadcdn@sarpad.com;Volunteer support services - friendly visits, shopping assistance
PERSONNES �G�ES;SENIORS;Services b�n�voles pour personnes �g�es;Seniors� Volunteer Support Services;;Canadian Association of World War II Veterans from the Soviet Union;;Mr. Groisberg, by appointment;;;;;;;(514) 573-7282;;;;;
PERSONNES �G�ES;SENIORS;Services b�n�voles pour personnes �g�es;Seniors� Volunteer Support Services;;Option Consommateurs;;;50, rue Ste-Catherine Ouest, bur. 440;Montr�al;Qu�bec;H3X 3V4;;;(514) 598-7288 ext. 246;1 888 412-1313 ext. 246;;;;Help planning budget/personal finances. Issues with merchants, warranties, online shopping, identity theft. Free at home consultation offered till February 2017 (krobillard@option-consommateurs.org)
PERSONNES �G�ES;SENIORS;Livraison de repas;Seniors� Meal Delivery;;Popote roulante;Meals On Wheels;;1919, rue Saint-Jacques;Montr�al;Qu�bec;H3J 1H2;;Lundi � vendredi 08h00 � 16h00;(514) 937-4798;;(514) 937-8588;;;
PERSONNES �G�ES;SENIORS;Livraison de repas;Seniors� Meal Delivery;;Santropol roulant;;;111, rue Roy Est;Montr�al;Qu�bec;H2W 1V3;;;(514) 284-9335;;(514) 284-5662;;;Livraison de lundi � samedi entre 15h00 et 18h00. Only serves specific areas, find map here: http://santropolroulant.org/en/become-a-client/
PERSONNES �G�ES;SENIORS;Services divers pour personnes �g�es;Seniors� Miscellaneous;;Alzheimer Society of Montr�al;;;4505, rue Notre-Dame Ouest;Montr�al;Qu�bec;H4C 1S3;;Lundi � vendredi 9h00 � 17h00. Dans l��t� : lundi � jeudi 8h30 � 17h00, vendredi 8h30 � 12h00;(514) 369-0800;;;;info@alzheimermontreal.ca;
PERSONNES �G�ES;SENIORS;Services divers pour personnes �g�es;Seniors� Miscellaneous;;R�sidence Caldwell;;;5750, rue Lemieux;Montr�al;Qu�bec;H3W 3G1;;;(514) 737-7569;;;;;Logement � loyer modique par la communaut� juive / Jewish Community subsidized housing
PERSONNES �G�ES;SENIORS;Services divers pour personnes �g�es;Seniors� Miscellaneous;;Suicide action Montr�al - Widow Support Programme;;;C.P. 310, succ. St-Michel;Montr�al;Qu�bec;H2A 3M1;;;(514) 723-4000;1 866 277-3553;;;;
PERSONNES �G�ES;SENIORS;Services divers pour personnes �g�es;Seniors� Miscellaneous;;Anciens Combattants Canada;Veterans Affairs Canada;;Place Bonaventure 800, rue de la Gaucheti�re Ouest, bureau 6505;Montr�al;Qu�bec;;;;1 866 522-2122;1 866 522-2022;;;;
PERSONNES �G�ES;SENIORS;Services divers pour personnes �g�es;Seniors� Miscellaneous;;Ligne Aide Abus Ain�s;;;;;;;;;1 888 489-2287;;;;;
PERSONNES �G�ES;SENIORS;Services divers pour personnes �g�es;Seniors� Miscellaneous;;Clinique Juridique pour aines (55+);;;;;;;;;(514) 844-9128 #206;;;;;Clinique mobile, appelez pour verifier l�adresse et pour prendre un rdv. Ils aident avec : immigration, logement, pension, mandats en prevision d�inaptitude, sante, wills, etc.
PERSONNES HANDICAP�ES;DISABLED PEOPLE;;;;Office des Personnes Handicap�es du Qu�bec;;;309, rue Brock;Drummondville;Qu�bec;J2B�1C5;;Lundi � vendredi 8h30 � 12h00, 13h00 � 16h30;1 800 567-1465;1 819 475-8585;;;info@ophq.gouv.qc.ca;Conseil pour cr�er une strat�gie pour obtenir l�acc�s aux services et programmmes. Accompagniement. R�f�rences.
PERSONNES HANDICAP�ES;DISABLED PEOPLE;;;;STM ID � Photo art;;;1717, rue Berri;;;;Berri-Uqam;Lundi � vendredi 11 h30 � 18 h00, samedi � dimanche 10 h30 � 17 h00;(514) 786-4636;;;;;Pour le transport a prix r�duit/ For public transportation at reduced rates. Preuves d'adresse et d'�ge requises/Bring proof of age (medicare) and proof of address (utility bill).
PERSONNES HANDICAP�ES;DISABLED PEOPLE;;;;STM: Transport adapt�;Adapted transportation;;3111, rue Jarry Est;Montr�al;Qu�bec;H1Z 2C2;;;(514) 280-8211;(514) 280-5445;;;;
PERSONNES HANDICAP�ES;DISABLED PEOPLE;;;;HASI (Home adaptation for seniors independence);;Soci�t� d'habitation du Qu�bec;;;;;;;1 800 463-4315;;;;;
PERSONNES HANDICAP�ES;DISABLED PEOPLE;Organismes communautaires;Community Organizations;;Altergo (Accessibilit� universeelle en loisir, sport, et culture);;;525, rue Dominion, Suite 340;Montr�al;Qu�bec;H3J 2B4;;Lundi � vendredi 9h00 � 17h00.;(514) 933-2739;;;;info@altergo.ca;Regroupement des organismes qui offre plusieurs programmes sportifs (avec la possibilit� de soutien financier), educatifs, evaluation des batiments, etc.
PERSONNES HANDICAP�ES;DISABLED PEOPLE;Organismes communautaires;Community Organizations;;Association pour la d�fense des personnes et de leurs biens sous curatelle publique (ADPPC);;;1857, boulevard de Maisonneuve O, bureau #120;Montr�al;Qu�bec;H3H 1J9;;Lundi � vendredi 9h-17h.;(514) 906-1845;;;;curabec@outlook.com;Formulation des plaintes, accompagnement et soutien, info sur les r�glements et directives internes du Curateur public, documentation.
PERSONNES HANDICAP�ES;DISABLED PEOPLE;Organismes communautaires;Community Organizations;;Association des Parents et des Handicapp�es de la Rive-Sud M�tropolitaine;;;2545, rue Delorimier, Suite 110;Longueuil;Qu�bec;J4K 3P7;;Lundi � jeudi 9h00 � 12h00, 13h00 � 16h30 (vendredi- matin seulement).;(450) 674-5224;;;;aphrsm@hotmail.com;"Programmes d�activit�s recreatives, socio-culturelles ; d�fense des droits ; r�f�rences, �coute et support pour les personnes qui ont un handicap intellectuelle (pas physique)."
PERSONNES HANDICAP�ES;DISABLED PEOPLE;Organismes communautaires;Community Organizations;;Association multiethnique pour l�int�gration des personnes handicap�es;;;6462, boulevard Saint-Laurent;Montr�al;Qu�bec;H2S 3C4;;;(514) 272-0680;;;;ameiph@ameiph.com;Favoriser l�int�gration sociale et briser l�isolement des personnes ayant une d�ficience intellectuelle, physique, ou autre et faisant partie d�une communaut� ethnoculturelle minoritaire. Remplir des formulaires, d�fense des droits, r�f�rences, groups de soutien, cours de fran�ais.
PERSONNES HANDICAP�ES;DISABLED PEOPLE;Organismes communautaires;Community Organizations;;Comit� r�gional des associations pour la d�ficience intellectuelle (CRADI);;;5095, 9e Avenue, bureau 100;Montr�al;Qu�bec;H1Y 2J3;;;(514) 255-8111;;;;cradi@cradi.com;Regroupement d�organismes : la d�fense des droits, la promotion des int�r�ts des personnes ayant une d�ficience intellectuelle.
PERSONNES HANDICAP�ES;DISABLED PEOPLE;Organismes communautaires;Community Organizations;;Conf�d�ration des organismes de personnes handicap�es (COPHAN);;;2030, boul. Pie-IX, bureau 300;Montr�al;Qu�bec;H1V 2C8;;;(514) 284-0155;;;;info@cophan.org;Regroupement d�action communautaire autonome de d�fense collective des droits.
PERSONNES HANDICAP�ES;DISABLED PEOPLE;Organismes communautaires;Community Organizations;;Metropolitan Montr�al Independent Living Resource Centre;;;5555, avenue Westminster, bureau 404;Montr�al;Qu�bec;H1Y 2J3;;Lundi � vendredi 8h30 � 12h00, 13h00 � 16h30.;(514) 288-1177;;;;information@va-m.org;R�f�rences, soutien de groupe, aide avec des formulaires (comme contrainte severe � l�emploi), cours, d�f�nse des droits, aide � trouver un travail, aide avec l�application pour assistance � la maison.
PERSONNES HANDICAP�ES;DISABLED PEOPLE;Organismes communautaires;Community Organizations;;Regroupement des Aveugles et Amblyopes du Montr�al M�tropolitain;;;5215, rue Berri, Suite 200;Montr�al;Qu�bec;H2J 2S4;;;(514) 277-4401;;;;info@raamm.org;
PERSONNES HANDICAP�ES;DISABLED PEOPLE;Organismes communautaires;Community Organizations;;Maison des femmes sourdes de Montr�al;;;4855, rue Boyer, suite 105;Montr�al;Qu�bec;H2J 3E6;;;(514) 288-1177;(514) 255-5680;;;;
PERSONNES HANDICAP�ES;DISABLED PEOPLE;Organismes communautaires;Community Organizations;;West Island Citizen Advocacy;;;68, rue Prince-Edward;Pointe-Claire;Qu�bec;H9R 4C7;;Lundi � vendredi�: 09h30 � 17h00;(514) 694-5850;;;;wica@qc.aibn.com;
SANT� MENTALE;MENTAL HEALTH;;;;Action autonomie (Le collectif pour la d�fense des droits en sant� mentale de Montr�al);;;3958, rue Dandurand, 3e �tage;Montr�al;Qu�bec;H1X 1P7;;Lundi � vendredi 9h00 � 12h00, 13h00 � 17h00.;(514) 525-5060;;;;lecollectif@actionautonomie.qc.ca;"Accompagnement en d�fense des droits ; orientation vers les ressources. Formation sur les droits et recours en sant� mentale et m�dication."
SANT� MENTALE;MENTAL HEALTH;;;;AMI Qu�bec;;;5800, boulevard D�carie;Montr�al;Qu�bec;H3W 3E4;;Lundi � jeudi 09h00 � 17h00, vendredi 9h00 � 16h00.;(514) 486-1448;;(514) 486-6157;;info@amiquebec.org;. R�f�rences. Soutien � la famille et liaison entre les professionnels et la famille. Groupe d��ducation et entraide. Activit�s de sensibilisation. D�fense des droits.
SANT� MENTALE;MENTAL HEALTH;;;;Centre Miriam  (d�ficience intellectuelle);;;8160, chemin Royden;Mont-Royal;Qu�bec;H4P 2T2;;Lundi � vendredi 09h00 � 17h00.;(514) 345-0210;;;;;. Provides readaptation, residential, vocational integration and community integration services, as well as specialised educational assistance for clients, families and significant others. Housing. Must be referred by a CSSS.
SANT� MENTALE;MENTAL HEALTH;;;;Concordia University - The Applied Psychology Centre;;;7141, rue Sherbrooke Ouest, bureau PY-111 (Loyola Campus);Montr�al;Qu�bec;H4B 1R6;;;(514) 848-2424 ext.7550;;;;;Psychotherapy and school evaluations for children, teens, adults, and families- By appointment, sliding scale - $30.00 maximum. Appeler en ao�t pour �tre mis sur la liste d�attente de septembre.
SANT� MENTALE;MENTAL HEALTH;;;;Diog�ne � Programme Intervention et Recherche Psycauses;;;CP 608, Succursale C;Montr�al;Qu�bec;H2L 4L5;;;(514) 874-1214;;;;info@diogeneqc.org;Recherche de lodgement. Suivi alternatif communautaire. Service de r�f�rences. Client doit appeler.
SANT� MENTALE;MENTAL HEALTH;;;;Maison Multiethnique Myosotis;;;660, rue Villeray, bureau 2.107;Montr�al;Qu�bec;H2R 1J1;;Lundi � vendredi 10h � 17h;(514) 271-4407;;;;myosotis@bellnet.ca;Psychoth�raphie familiale par rendez-vous, 12$ for people on welfare. Services offerts en fran�ais, anglais, polonais, russe, espagnol, allemand et roumain.
SANT� MENTALE;MENTAL HEALTH;;;;Projet PAL;;;861, rue de l��glise;Verdun;Qu�bec;H4G 2N3;;Lundi � vendredi 9h � 16h;(514) 767-4701;;;;projet.pal@rocler.qc.ca;Activit�s sociales, repas, d�fense des droits, h�bergement.
SANT� MENTALE;MENTAL HEALTH;;;;TRACOM (Crisis services in Mental Health);;adresse confidentiel) H�b�rgement court term, service d��coute.;;;;;;;(514) 483-3033;;(514) 483-2516;;;
SANT� MENTALE;MENTAL HEALTH;;;;Curateur public;Public Curator�s Office;;600, boulevard Ren� Levesque Ouest;Montr�al;Qu�bec;H3B 4W9;;;(514) 873-4074;1 800 363-9020;(514) 873-4972;;;Manages finances and care for incapacitated individuals.
SANT� MENTALE;MENTAL HEALTH;;;;ADPPPC (Association for the Defense of People and Property under Public Curatorship);;;1857 Boulevard de Maisonneuve ouest, Suite #120;Montreal;Qu�bec;H3H 1J9;;Lundi � vendredi, 9h � 17h.;(514) 906-1845;;;;;Defends rights of people or property under public curatorship.
SANT� MENTALE;MENTAL HEALTH;;;;Urgence Psychosociale-Justice;;;;;;;;;(514) 861 9331 ext. 8163 ou 8171;;;;;Emergency interventions for clients with severe and persistent mental helth problems who have performed or are about to perform a criminal act. Will be there within 20 minutes of being called.
SANT� MENTALE;MENTAL HEALTH;Service d��coute;Listening Services;;Face � Face;;;980, rue St-Antoine Ouest #101B;Montr�al;Qu�bec;H3C 1A8;;;(514) 934-4546;;(514) 934-0063;;;Service d��coute et de r�f�rence. Aide sociale pour les sans-abri. Recherche de logement.
SANT� MENTALE;MENTAL HEALTH;Service d��coute;Listening Services;;Multi-�coute;;(Listening & psychological services);3600, rue Barclay, bureau 460;Montr�al;Qu�bec;H3S 1K5;;;(514) 737-3604;;(514) 737-5631;;;
SANT� MENTALE;MENTAL HEALTH;Service d��coute;Listening Services;;Suicide action Montr�al;;;;;;;;;(514) 723-4000;;;;;
SANT� MENTALE;MENTAL HEALTH;Service d��coute;Listening Services;;Tel-Aide;;;;;;;;;(514) 935-1101;(514) 935-1105;;;;
SANT� MENTALE;MENTAL HEALTH;Centres de crise;Crisis centres;TRACOM;TRACOM;;;;;;;;;(514) 483-3033;;;;;
SANT� MENTALE;MENTAL HEALTH;Centres de crise;Crisis centres;;Iris;;Nord;2430, boulevard Henri Bourassa Est;Montr�al;Qu�bec;H2C 1C7;;;(514) 388-9233;;;;;
SANT� MENTALE;MENTAL HEALTH;Centres de crise;Crisis centres;;L�Autre Maison;;Sud-ouest;;;;;;;(514) 768-7225;;(514) 282-9163;;;H�bergement court-terme, suivi, �coute t�l�phonique.
SANT� MENTALE;MENTAL HEALTH;Centres de crise;Crisis centres;;Le Transit;;Centre-Est;538, rue Cherrier;Montr�al;Qu�bec;H2L 1H3;;;(514) 282-7753;;(514) 282-9163;;;
SANT� MENTALE;MENTAL HEALTH;Centres de crise;Crisis centres;;Centre de crise - �quipe Mobile R�solution;;Est;;;;;;24 HEURES � 7 JOURS;(514) 351-9592;;;;;
SANT� MENTALE;MENTAL HEALTH;Centres de crise;Crisis centres;;Montreal West Island Crisis Centre  (Confidentiel;;Ouest;;;;;;;(514)684-6160;;;;;
SANT� ET SERVICES SOCIAUX;HEALTH AND SOCIAL SERVICES;;;;R�gie de l�assurance maladie (RAMQ) / Medicare;;;425, boulevard de Maisonneuve Ouest, 3e �tage;Montr�al;Qu�bec;H3A 3G5;Place des Arts;Lundi � vendredi 08h30 � 16h30, mercredi 10h00 � 16h30;(514) 864-3411;;;;;
SANT� ET SERVICES SOCIAUX;HEALTH AND SOCIAL SERVICES;;;;CLSC C�te-des-Neiges (CSSS de la Montagne);;;5700, chemin de la C�te-des-Neiges (coin C�te-Sainte-Catherine);Montr�al;Qu�bec;H3T 2A8;;Lundi � vendredi 08h00 � 20h00, samedi � dimanche 08h00 � 16h00;(514) 731-8531;;;;;
SANT� ET SERVICES SOCIAUX;HEALTH AND SOCIAL SERVICES;;;;CLSC Ren� Cassin (CSSS Cavendish) (C�te-Saint-Luc / Hampstead);;;5800, rue Cavendish, 6e �tage;C�te-Saint-Luc;Qu�bec;H4W 2T5;;Lundi � vendredi 08h00 � 18h00, samedi, dimanche et jours f�ri�s 08h00 � 16h00;(514) 484-7878;;;;;Clinique sans rendez-vous des soins infirmiers : 8h � 15h, tous les jours.
SANT� ET SERVICES SOCIAUX;HEALTH AND SOCIAL SERVICES;;;;CLSC de Benny Farm (CSSS Cavendish) (NDG / MTL Ouest);;;6484, avenue de Monkland;Montr�al;QC;H4B 1H3;;Lundi � vendredi 08h00 � 18h00;(514) 484-7878;;;;;(clinique sans rendez-vous des soins infirmiers : 8h � 15h). Samedi, dimanche et jours f�ri�s : ferm�.
SANT� ET SERVICES SOCIAUX;HEALTH AND SOCIAL SERVICES;;;;CLSC des Faubourgs (CSSS Jeanne Mance);;;66, rue Sainte-Catherine Est;Montr�al;Qu�bec;H2X 1K6;;;(514) 527-2361;;;;;Services to homeless people. Clinique jeunesse est maintenant � la m�me adresse.
SANT� ET SERVICES SOCIAUX;HEALTH AND SOCIAL SERVICES;;;;Protection de la jeunesse (Francophone) - Centre Jeunesse Centre Ville;;;1001, boulevard de Maisonneuve Est;Montr�al;Qu�bec;H2L 4R5;;;(514) 896-3300;(514) 896-3100;;;;
SANT� ET SERVICES SOCIAUX;HEALTH AND SOCIAL SERVICES;;;;Department of Youth Protection (Batshaw Youth & Family Services);;;5, rue Weredale Park;Westmount;Qu�bec;H3Z 1Y5;;;(514) 989-1885;;(514) 935-6196;;;
SANT� ET SERVICES SOCIAUX;HEALTH AND SOCIAL SERVICES;;;;Office des personnes handicap�es du Qu�bec;;;500, boulevard Ren� L�vesque Ouest, bureau 15.700;Montr�al;Qu�bec;H2Z 1W7;;;1 800 567-1465;;;;;
SANT� ET SERVICES SOCIAUX;HEALTH AND SOCIAL SERVICES;Organismes communautaires;Community Organizations;;CAAP (Centre d'assistance et d'accompagnement aux plaintes;;;7333, rue Saint-Denis;Montr�al;Qu�bec;H2R 2E5;;;(514) 861-5998;1 877 767-2227;;;;
SANT� ET SERVICES SOCIAUX;HEALTH AND SOCIAL SERVICES;Organismes communautaires;Community Organizations;;CPM (Conseil pour la protection des malades);;;1000, rue Saint-Antoine Ouest, Bureau 403;Montr�al;Qu�bec;H3C 3R7;;Lundi � vendredi 8h30 � 16h30.;(514) 861-5922;1 877 276-2433;;;;
SANT� ET SERVICES SOCIAUX;HEALTH AND SOCIAL SERVICES;H�pitaux;Hospitals;;Centre hospitalier Ste-Mary�s Hospital;;;3830, rue Lacombe;Montr�al;Qu�bec;H3T 1M5;C�te-des-Neiges;;(514) 345-3511;;;;;
SANT� ET SERVICES SOCIAUX;HEALTH AND SOCIAL SERVICES;H�pitaux;Hospitals;;Centre hospitalier g�n�ral juif;Jewish General Hospital;;3755, chemin de la C�te-Sainte-Catherine;Montr�al;Qu�bec;H3T 1E2;C�te-des-Neiges / C�te-Sainte-Catherine;;(514) 340-8222;(514) 340-8222 ext. 8240;;;;
SANT� ET SERVICES SOCIAUX;HEALTH AND SOCIAL SERVICES;H�pitaux;Hospitals;;Hope and Cope (Cancer patients);;;;;;;;;(514) 340-8255;;;;;
SANT� ET SERVICES SOCIAUX;HEALTH AND SOCIAL SERVICES;H�pitaux;Hospitals;;Centre hospitalier juif;Jewish Eldercare Center;Centre d�h�bergement et de soins de longue dur�e;5725, rue Victoria;Montr�al;Qu�bec;H3W 3H6;C�te-Sainte-Catherine;;(514) 738-4500;;(514) 738-2611;;;
SANT� ET SERVICES SOCIAUX;HEALTH AND SOCIAL SERVICES;H�pitaux;Hospitals;;Centre universitaire de sant� de McGill;McGill University Health Centre;H�pital g�n�ral de Montr�al / Montreal General Hospital;1650, rue Cedar;Montr�al;Qu�bec;H3G 1A4;Guy Concordia;;(514) 934-1934;;;;;
SANT� ET SERVICES SOCIAUX;HEALTH AND SOCIAL SERVICES;H�pitaux;Hospitals;;H�pital de r�adaptation Pavillon Lindsay;Lindsay Rehabilitation Hospital;Centre sp�cialis� en r�adaptation orthop�dique;6363, rue Hudson;Montr�al;Qu�bec;H3S 1M9;Plamondon, bus 161 Est;;(514) 737-3661;;;;;
SANT� ET SERVICES SOCIAUX;HEALTH AND SOCIAL SERVICES;H�pitaux;Hospitals;;H�pital Ste-Justine;;H�pital pour enfants et maternit�;3175, chemin de la C�te-Sainte-Catherine;Montr�al;Qu�bec;H3T 1C5;Universit� de Montr�al;;(514) 345-4931;;;;;
SANT� ET SERVICES SOCIAUX;HEALTH AND SOCIAL SERVICES;H�pitaux;Hospitals;;Institut de r�adaptation de Montr�al Pavillon Gingras;Gingras Montreal Rehabilitation Centre;Centre pour handicap�s physiques;6300, avenue Darlington;Montr�al;Qu�bec;H3S 2J4;Rosemont + bus 161;;(514) 340-2085;;;;;
SANT� ET SERVICES SOCIAUX;HEALTH AND SOCIAL SERVICES;H�pitaux;Hospitals;;Institut universitaire de g�riatrie de Montr�al;;Centre d�h�bergement et de soins de longue dur�e;4565, chemin Queen Mary;Montr�al;Qu�bec;H3W 1W5;;"Lundi � vendredi 07h30 � 16h00; samedi � dimanche 10h00 � 16h00";(514) 340-1424;;(514) 340-2802;;;
SERVICES D�INFORMATION ET DE R�F�RENCE;INFORMATION & REFERRAL SERVICES;;;;Centre d�action b�n�vole;Volunteer Bureau of Montreal;;2015, rue Drummond, bureau 300;Montr�al;Qu�bec;H3G 1W7;;Lundi � vendredi 09h00 � 18h00;(514) 842-3351;;;;;
SERVICES D�INFORMATION ET DE R�F�RENCE;INFORMATION & REFERRAL SERVICES;;;;Centre de r�f�rence du Grand Montr�al;Montr�al Information and Referral Centre;;3155, rue Hochelaga, bureau 101;Montr�al;Qu�bec;H1W 1G4;;;(514) 527-1375;;;;;Informations seulement par t�l�phone / Information given only by phone
SERVICES D�INFORMATION ET DE R�F�RENCE;INFORMATION & REFERRAL SERVICES;;;;Jewish Information and Referral Service;Service juif d'information et de r�f�rence;;5151, chemin de la C�te-Sainte-Catherine;Montr�al;Qu�bec;H3W 1M6;;;(514) 733-1818;;;;;
SERVICES D�INFORMATION ET DE R�F�RENCE;INFORMATION & REFERRAL SERVICES;;;;Multi-�coute (Aide � remplir les formulaires, information et r�f�rence);;;3600, rue Barclay, bureau 460;Montr�al;Qu�bec;H3S 1K5;;;(514) 737-3604;;(514) 737-5631;;;
SERVICES D�INFORMATION ET DE R�F�RENCE;INFORMATION & REFERRAL SERVICES;;;;Services Qu�bec (Information sur les programmes gouvernementaux);;;2050, rue de Bleury, Bureau 10;Montr�al;Qu�bec;H3A 2J5;;Lundi � vendredi 08h30 � 16h30;(514) 644-4545;;;;;
SERVICES D�INFORMATION ET DE R�F�RENCE;INFORMATION & REFERRAL SERVICES;;;;R�f�rence Canada;;;;;;;;;1 800 622-6232;;;servicecanada.qc.ca;;Informations sur les programmes f�d�raux / Information on federal programs
SERVICES JURIDIQUES;LEGAL AID;;;;Aide juridique / Legal Aid (C�te-Des-Neiges Office);;;3535, chemin Queen Mary, bureau 415;Montr�al;Qu�bec;H3V 1H8;;Heures : lundi � vendredi 8h30 � 12h00, 13h00 � 16h30.;(514) 864-7666;;;;baj.cotedesneiges@ccjm.qc.ca;Champs d�intervention : Droit familiale, civil, administratif (aide sociale, CNESST), du logement, et faillite.
SERVICES JURIDIQUES;LEGAL AID;;;;Legal Aid � Head Office;;;;;;;;;(514) 864-2111;;;;;Pour trouver votre bureau local/To locate a local office : http://www.aidejuridiquedemontreal.ca/points-de-services/
SERVICES JURIDIQUES;LEGAL AID;;;;Barreau du Qu�bec;;;;;;;;Lundi � vendredi 08h30 � 16h30 / Monday to Friday 08h30 - 16h30;1 844 227-3790;1 844 954-3411;;;infobarreau@barreau.qc.ca;Premier appel gratuit avec un avocat / Free first call with a lawyer
SERVICES JURIDIQUES;LEGAL AID;;;;Association du jeune barreau de Montreal;Young Bar of Montreal;;445, rue Saint-Laurent, Suite RC-03;Montr�al;Qu�bec;H2Y 3T8;;;(514) 954-3487;;;;;Consultations gratuites pour les personnes qui ont re�u un avis d�audition La Cour du Quebec, division des petites cr�ances, Commission des relations de travail, regie du logement, Cour d�Appel. Services gratuites pour les jeunes (12-20 ans) sur mercredi de 16h-18h.
SERVICES JURIDIQUES;LEGAL AID;;;;Le bureau du Protecteur du citoyen;The Ombudsman Office;;1080, C�te Beaver Hall, 10e �tage;Montr�al;Qu�bec;H2Z 1S8;;Lundi � vendredi 08h30 � 12h00, 13h � 16h30;(514) 873-2032;1 800 463-5070;1 866 902-7130;;;
SERVICES JURIDIQUES;LEGAL AID;;;;Commission des droits de la personne;Human Rights Commission;;360, rue Saint-Jacques, 2e �tage;Montr�al;Qu�bec;H2Y 1P5;Square Victoria;Lundi � vendredi 08h30 � 16h30;(514) 873-5146;;;;;
SERVICES JURIDIQUES;LEGAL AID;;;;Commission nationale des lib�rations conditionnelles;National Parole Board;Complexe Guy Favreau Tour Ouest;200, boulevard Ren� L�vesque Ouest 10 e �tage, bureau 1001;Montr�al;Qu�bec;H2Z 1X4;;;1 800 874-2652;(514) 283-4584;(514) 283-5484;www.pbc.cicc.qc.ca;;
SERVICES JURIDIQUES;LEGAL AID;;;;Curateur public;Public Curator�s Office;;600, boulevard Ren� L�vesque Ouest, bureau 500;Montr�al;Qu�bec;H3B 4W9;;;(514) 873-4074;1 800 363-9020;(514) 873-4972;;;
SERVICES JURIDIQUES;LEGAL AID;Cliniques juridiques;Community Legal Clinics;;McGill Legal Info Clinic;;;3480, rue McTavish Bureau 107;Montr�al;Qu�bec;H3A 1X9;;"Lundi, mercredi, jeudi 9h-17h00 ; mardi 9h-19h ; vendredi 9h-15h00.";(514) 398-6792;;;;;Over the phone or walk in. Takes about 2 weeks for a law student to research and respond to your question. Does not help with criminal law, tax law, law on major house renovations or construction, or laws outside Quebec.
SERVICES JURIDIQUES;LEGAL AID;Cliniques juridiques;Community Legal Clinics;;Barreau de Montr�al � Referral Service;;;;;;;;;(514) 866-2490;;;;;30$ pour une consultation de 30 minutes avec un avocat, sur rendez-vous seulement. 30 minute consultation with a lawyer, by appointment only, $30 charge.
SERVICES JURIDIQUES;LEGAL AID;Cliniques juridiques;Community Legal Clinics;;Centre de justice de proximit�;;;407, boulevard Saint Laurent, bureau 410;Montr�al;Qu�bec;H2Y 2Y5;;;(514) 227-3782;;;;;"Gratuit, RDV pas necessaire. Ils donnent pas d�info sur le telephone. Lundi, mardi et jeudi 9h-17h; mercredi 9h-19h. Ils n�aident pas avec brevet, lois d�un autre pays ou province; ne sont pas specialis� dans les appels, injonction, faillite (bankruptcy), ficalit� (tax law), immigration."
SERVICES JURIDIQUES;LEGAL AID;Cliniques juridiques;Community Legal Clinics;;CELO;;;5347, C�te-des-Neiges, bureau 410;Montr�al;Qu�bec;H3T 1Y4;;;(514) 343-6111 ext. 8967;;;;;Sur les lundis, jusqu�� avril. Pour prendre RDV, appellez le mercredi pr�c�dant entre 10h et 12h30.
SERVICES JURIDIQUES;LEGAL AID;Cliniques juridiques;Community Legal Clinics;;Centre des femmes de Montr�al - Women�s Centre of Montreal (Femmes seulement);;;3585, rue Saint-Urbain;Montr�al;Qu�bec;H2X 2N6;;Lundi � vendredi 09h00 � 17h00.;(514) 842-4780;;(514) 842-5613;;spl@centredesfemmesdemtl.org;Par rendez-vous, femmes seulement/ By appointment, women only
SERVICES JURIDIQUES;LEGAL AID;Cliniques juridiques;Community Legal Clinics;;Clinique juridique de Pointe Saint-Charles et petite Bourgogne;;;2533, rue Centre, bureau 101;Montr�al;Qu�bec;H3K 1J9;;Lundi � vendredi 08h30 � 16h30;(514) 933-8432;;(514) 933-4381;;servjur@bellnet.ca;
SERVICES JURIDIQUES;LEGAL AID;Cliniques juridiques;Community Legal Clinics;;Clinique Juridique pour aines (55+);;;;;;;;;(514) 844-9128 #206;;;;;Clinique mobile, appelez pour verifier l�adresse et pour prendre un rdv. Ils aident avec : immigration, logement, pension, mandats en prevision d�inaptitude, sante, wills, etc.
SERVICES JURIDIQUES;LEGAL AID;Cliniques juridiques;Community Legal Clinics;;Clinique juridique � YWCA (Femmes seulement);;;1355, boulevard Ren� Levesque Ouest (corner Crescent);Montr�al;Qu�bec;H3G 1T3;: Lucien L�Allier;;(514) 866-9941 ext.293;;(514) 866 4866;;infojuridique@ydesfemmesmtl.org;Par rendez-vous, 0-20$ pour une consultation de 30 minutes/By appointment only 30 minutes consultation with a lawyer, $0-20 charge. De septembre � avril, from September to April. Max trois fois par ann�e, three times a year max. Specialit�s : droit familiale, immigration, criminel, civil, du logement, du travail. Specialties : family, immigration, criminal, civil, housing, work law.
SERVICES JURIDIQUES;LEGAL AID;Cliniques juridiques;Community Legal Clinics;;Concertation Femmes (Femmes seulement);;;1405, boulevard Henri-Bourassa Ouest, bureau 012;Montr�al;Qu�bec;H3M 3B9;;Lundi � vendredi 09h00 � 17h00.;(514) 336-3733;;(514) 856-2400;;info@concertationfemme.ca;�tudiants en droit de septembre � avril, par rendez-vous seulement/ Law students from September to April, by appointment only.
SERVICES JURIDIQUES;LEGAL AID;Cliniques juridiques;Community Legal Clinics;;Head and Hands;� deux mains;;5833, rue Sherbrooke Ouest, (corner Melrose)P.O. Box 446 Station NDG, H4A 3P5;;;;;Ligne ouverte 9h-16h30 lundi � vendredi. M�diation familiale.;(514) 481-0277;;(514) 481-2336;;info@headandhands.ca;Lawyer appoitments are available to everyone and usually occur on Wednesday and Thursday evenings, appointments with paralegal open only to youth (12-25).
SERVICES JURIDIQUES;LEGAL AID;Cliniques juridiques;Community Legal Clinics;;Inform�elle (Information on Family Law);;;3757, rue Mackay;Saint-Hubert;Qu�bec;J4T 2P6;;;1 877 443-3442;(450) 443-8221;;;droitpourelle@informelle.osbl.ca;
SERVICES JURIDIQUES;LEGAL AID;Cliniques juridiques;Community Legal Clinics;;P�res s�par�s;;;3937, rue Adam;Montreal;Qu�bec;H1W 2A1;;Lundi � jeudi 10h00 � 18h00;(514) 254-6120;;(514) 357-2604;;psi@peres-separes.qc.ca;Par rendez-vous seulement, frais d�adhesion de 40$/By appointment only, $40 membership fee Lundi � jeudi 10h00 � 18h00. Offrent des services adapt�s pour les hommes sourds ou malentendant. Offrent des groupes de soutien et aussi rencontres individuelles.
SERVICES JURIDIQUES;LEGAL AID;Cliniques juridiques;Community Legal Clinics;;C.R.A.R.R. (Centre for Research Action on Race Relations);;;460, rue de la Sainte-Catherine Ouest, bureau 610;Montr�al;Qu�bec;H3B 1A7;;;(514) 939-3342;;(514) 939-9763;;crarr@primus.ca;
SERVICES JURIDIQUES;LEGAL AID;Cours;Courts;;Cour des petites cr�ances;Small Claims Court;;1, rue Notre-Dame Est, bureau 3150;Montr�al;Qu�bec;H2Y 1B6;;Lundi � vendredi 8h30 � 16h30.;(514) 393-2304;(514) 954-3487;;;pcmtl.med@justice.gouv.qc.ca;Association du jeune barreau de Montr�al /Young Bar Association
SERVICES JURIDIQUES;LEGAL AID;Cours;Courts;;Cour du Qu�bec - Palais de Justice;Quebec Provincial Court;;1, rue Notre-Dame Est;Montr�al;Qu�bec;H2Y 1B;Place d�Armes;;1 866 536-5140;(514) 393-2062;;;;
SERVICES JURIDIQUES;LEGAL AID;Cours;Courts;;Registraire des entreprises;;Immatriculation d�entreprise / business registration;;;;;;;(514) 644-4545;;;;;
SERVICES JURIDIQUES;LEGAL AID;Cours;Courts;;Cour municipale;Municipal Court;;775, rue Gosford;Montreal;Qu�bec;H2Y 3Z8;Champ de Mars;;(514) 872-2964;;(514) 872-8271;;;
SERVICES JURIDIQUES;LEGAL AID;Cours;Courts;;McGill Court Accompaniment Program (CAP);;Envoyez un courriel, sinon laissez message d�taill� sur bo�te vocale Accompagnement par les �tudiants en droit de McGill;;;;;;;(514) 398-4400 ext.09055;;;;pacemtl@gmail.com;
SERVICES MUNICIPAUX;MUNICIPAL SERVICES;;;;POLICE � Non-Urgent Call Centre;;To report on something suspicious, noise or other complaints;;;;;;;(514) 280-2222;;;;;
SERVICES MUNICIPAUX;MUNICIPAL SERVICES;;;;POLICE � Non-Urgent Call Centre;;Station 24;Mont-Royal / Outremont  1435, avenue Van Horne Cavendish;;;;;;(514) 280-0124;;;;;
SERVICES MUNICIPAUX;MUNICIPAL SERVICES;;;;POLICE � Non-Urgent Call Centre;;Station 26;C�te-des-Neiges Ouest 5995 boulevard D�carie;;;;;;(514) 280-0126;(514) 280-0109;;;;
SERVICES MUNICIPAUX;MUNICIPAL SERVICES;;;;POLICE � Non-Urgent Call Centre;;Station 9;C�te Saint-Luc 5757 rue;;;;;;;;;;;
SERVICES MUNICIPAUX;MUNICIPAL SERVICES;;;;Division des Permis et Inspections CDN/NDG;;;5160, boulevard D�carie, bureau 865;Montr�al;Qu�bec;H3X 2H9;;Lundi � mardi, jeudi � vendredi 08h00 � 16h30, mercredi 13h30 � 16h30;(514) 872-5160;;(514) 872-2765;;;
SERVICES MUNICIPAUX;MUNICIPAL SERVICES;;;;SOS Tickets (contestation tickets);;;;;;;;;514) 448-4911;;;;;
SERVICES MUNICIPAUX;MUNICIPAL SERVICES;;;;Ville de Montr�al: Bureau de r�clamation et service de contentieux;Claims & legal department;;7275, rue Sherbrooke Est bureau 2201;;;;;Lundi � vendredi 08h30 � 16h30;(514) 872-2977;;(514) 872-6082;;;
SERVICES MUNICIPAUX;MUNICIPAL SERVICES;;;;TANDEM CDN (Pr�vention du crime;Crime Prevention);;6767, chemin de la C�te-des-Neiges, bureau 598;Montr�al;Qu�bec;H2H 1A2;;;(514) 736-2732;;(514) 736-2734;;;
SERVICES MUNICIPAUX;MUNICIPAL SERVICES;;;;Transport 2000;;;50, rue Sainte-Catherine Ouest, bureau 430;Montreal;Qu�bec;H2X 3V5;;;(514) 932-8008;;1 800 932-8211;;info@transport2000qc.org;D�fense des usagers du transport en commun
VICTIMES D�ACTES CRIMINELS;VICTIMS OF CRIME;;;;CAVAC (Centre d�aide aux victimes actes criminels;;;404, boulevard D�carie, bureau 306;Montr�al;Qu�bec;H4L 5E6;: Du Coll�ge;;(514) 744-5048;1 866 532-2822;;;;
VICTIMES D�ACTES CRIMINELS;VICTIMS OF CRIME;;;;IVAC (Direction de l�indemnisation des victimes d�actes criminels);;;1199, rue Bleury, 9e �tage Case Postale 6056, Succ. Centre Ville;Montr�al;Qu�bec;H3C 4E1;;Lundi � vendredi 08h30 � 16h30;(514) 906-3019;1 800 561-4822;;;;
VICTIMES D�ACTES CRIMINELS;VICTIMS OF CRIME;;;;Rivo-R�silience;;;6865, avenue Christophe-Colomb;Montr�al;Qu�bec;H2S 2H3;;;(514) 282-0661;;(514) 282-0661;;;R�seau d'intervention aupr�s des personnes ayant subi la violence organis�e/Intervention network for persons having been subjected to organised violence
